{"type":"FeatureCollection","features":[{"type":"Feature","properties":{"code":"08","nom":"Ardennes"},"geometry":{"type":"Polygon","coordinates":[[[4.2332,49.9577],[4.2693,49.9653],[4.2973,49.9646],[4.3087,49.9697],[4.3229,49.9631],[4.3374,49.9621],[4.3501,49.952],[4.3711,49.9514],[4.3815,49.9542],[4.3917,49.9474],[4.4184,49.947],[4.4469,49.9375],[4.4816,49.9479],[4.5104,49.9467],[4.5192,49.9515],[4.5233,49.9504],[4.5307,49.9614],[4.5422,49.9693],[4.5643,49.9701],[4.5722,49.9745],[4.5737,49.9803],[4.5821,49.9836],[4.6332,49.9871],[4.6662,49.9967],[4.6936,49.9955],[4.685,50.007],[4.6885,50.0114],[4.6847,50.0272],[4.6966,50.0427],[4.6958,50.0489],[4.6997,50.0536],[4.6959,50.0591],[4.6863,50.0575],[4.6802,50.0665],[4.6885,50.0726],[4.693,50.0848],[4.7021,50.0955],[4.7134,50.097],[4.7156,50.1007],[4.7514,50.1117],[4.753,50.1168],[4.7478,50.1223],[4.756,50.1216],[4.7622,50.1364],[4.8058,50.1526],[4.8251,50.1691],[4.8243,50.1607],[4.8322,50.1532],[4.876,50.1539],[4.8795,50.1515],[4.8812,50.1413],[4.895,50.1404],[4.8971,50.1378],[4.8848,50.1301],[4.8784,50.1309],[4.8784,50.1272],[4.8706,50.1247],[4.8672,50.1187],[4.8737,50.1075],[4.8679,50.0967],[4.876,50.0942],[4.8721,50.0877],[4.8605,50.0927],[4.8617,50.0971],[4.8585,50.0999],[4.8509,50.1013],[4.8377,50.0929],[4.8463,50.0849],[4.8406,50.0829],[4.8429,50.0775],[4.8379,50.0671],[4.8193,50.0659],[4.8213,50.0649],[4.8188,50.0611],[4.829,50.0571],[4.8273,50.0501],[4.8318,50.0467],[4.8404,50.0463],[4.8413,50.04],[4.8194,50.0258],[4.822,50.0222],[4.817,50.0156],[4.8211,50.0117],[4.816,50.0027],[4.8189,49.9951],[4.8038,49.9826],[4.7933,49.9821],[4.7954,49.977],[4.7901,49.97],[4.7909,49.9584],[4.8302,49.9489],[4.8471,49.949],[4.859,49.9318],[4.8808,49.9223],[4.8804,49.9166],[4.89,49.9093],[4.8863,49.9056],[4.8774,49.9045],[4.8762,49.9014],[4.8852,49.9021],[4.8873,49.8987],[4.8774,49.8942],[4.8692,49.8837],[4.8708,49.8787],[4.8635,49.8745],[4.8631,49.8673],[4.8512,49.865],[4.8516,49.8537],[4.8576,49.8464],[4.8576,49.8418],[4.8673,49.8419],[4.8688,49.8231],[4.8769,49.8194],[4.8651,49.8132],[4.8627,49.8017],[4.8515,49.7936],[4.8635,49.789],[4.8708,49.7893],[4.8695,49.7934],[4.8791,49.793],[4.8873,49.788],[4.8984,49.7892],[4.9057,49.7855],[4.9217,49.7886],[4.9309,49.7869],[4.9571,49.8017],[4.9626,49.7978],[4.9689,49.8018],[4.9988,49.7996],[4.998,49.7947],[5.0072,49.7877],[5.007,49.7835],[5.0136,49.7801],[5.0614,49.7669],[5.0632,49.7619],[5.0836,49.7626],[5.0876,49.7659],[5.0935,49.7637],[5.1185,49.7383],[5.1247,49.7274],[5.1231,49.7173],[5.1256,49.7124],[5.1393,49.7136],[5.1436,49.7093],[5.1513,49.7175],[5.1582,49.7168],[5.1653,49.712],[5.1639,49.699],[5.1662,49.6929],[5.1925,49.6949],[5.1988,49.6921],[5.2052,49.6961],[5.2182,49.6875],[5.2316,49.691],[5.2429,49.6886],[5.2428,49.686],[5.2558,49.6941],[5.2707,49.6953],[5.2866,49.6818],[5.3089,49.6715],[5.332,49.6548],[5.3328,49.6528],[5.3176,49.6464],[5.3049,49.6301],[5.3049,49.6246],[5.3135,49.6108],[5.3259,49.6163],[5.3402,49.6169],[5.3472,49.6313],[5.3635,49.623],[5.3734,49.6235],[5.3935,49.6171],[5.3809,49.6043],[5.3781,49.593],[5.3663,49.5931],[5.3513,49.5884],[5.3402,49.5948],[5.329,49.5798],[5.3181,49.5743],[5.3167,49.5673],[5.3082,49.5628],[5.3118,49.5593],[5.2851,49.5533],[5.2763,49.5443],[5.2627,49.5418],[5.2585,49.5446],[5.2542,49.5555],[5.2347,49.5622],[5.2356,49.5692],[5.2085,49.5744],[5.1975,49.5667],[5.1841,49.5696],[5.1627,49.5625],[5.159,49.5716],[5.1527,49.5769],[5.1508,49.5857],[5.1443,49.5909],[5.1138,49.5919],[5.1046,49.5759],[5.1102,49.5735],[5.1124,49.5689],[5.1081,49.5619],[5.1131,49.5606],[5.1084,49.5553],[5.0961,49.5578],[5.0944,49.5497],[5.088,49.5449],[5.0898,49.5349],[5.1004,49.5372],[5.0977,49.534],[5.0993,49.5316],[5.0908,49.5256],[5.0899,49.5211],[5.0855,49.5203],[5.0788,49.5095],[5.0617,49.5075],[5.0595,49.5006],[5.0673,49.4967],[5.0747,49.4864],[5.0835,49.4841],[5.083,49.4704],[5.095,49.4596],[5.1056,49.4613],[5.1112,49.4575],[5.1073,49.4543],[5.1085,49.4475],[5.1001,49.4444],[5.1003,49.4409],[5.1062,49.4316],[5.1049,49.4259],[5.116,49.4218],[5.1148,49.419],[5.0971,49.4145],[5.0915,49.4072],[5.0767,49.4031],[5.0881,49.4021],[5.0896,49.4007],[5.0858,49.3988],[5.1041,49.3898],[5.0987,49.3846],[5.1011,49.3781],[5.0849,49.3698],[5.0615,49.372],[5.0533,49.3657],[5.0556,49.3587],[5.0263,49.3362],[5.0274,49.3268],[5.0381,49.3162],[5.0255,49.3104],[5.0358,49.3074],[5.0425,49.2982],[5.0381,49.2972],[5.0398,49.2952],[5.0542,49.2949],[5.0594,49.2899],[5.049,49.2853],[5.0512,49.2741],[5.0336,49.2707],[5.0258,49.2742],[4.9964,49.264],[4.9994,49.2595],[4.9675,49.2493],[4.958,49.2384],[4.951,49.2369],[4.9501,49.2414],[4.9459,49.2438],[4.9216,49.2521],[4.9343,49.2596],[4.9271,49.262],[4.9169,49.2604],[4.924,49.2665],[4.9012,49.2625],[4.8928,49.2581],[4.8774,49.2627],[4.883,49.2565],[4.8781,49.2555],[4.878,49.2494],[4.8618,49.2399],[4.8616,49.2367],[4.8674,49.2361],[4.8665,49.2266],[4.8368,49.2355],[4.8308,49.2334],[4.8258,49.2367],[4.8299,49.2431],[4.8171,49.2415],[4.8154,49.2499],[4.8023,49.2477],[4.8005,49.2442],[4.7907,49.2411],[4.7731,49.2451],[4.7442,49.2415],[4.727,49.2535],[4.7038,49.2509],[4.7038,49.2554],[4.6889,49.2575],[4.6799,49.2531],[4.6705,49.2412],[4.6343,49.2318],[4.6323,49.2351],[4.6186,49.2386],[4.6197,49.247],[4.611,49.2571],[4.608,49.2693],[4.5921,49.2734],[4.5909,49.277],[4.5939,49.2798],[4.5899,49.281],[4.6004,49.29],[4.5837,49.2909],[4.5845,49.2934],[4.5759,49.2966],[4.5727,49.2937],[4.568,49.2965],[4.5533,49.2946],[4.5412,49.2862],[4.516,49.2802],[4.4838,49.2808],[4.4595,49.2776],[4.4472,49.2725],[4.4395,49.2801],[4.4226,49.2806],[4.4167,49.2878],[4.4089,49.2865],[4.4035,49.2935],[4.3962,49.2922],[4.3741,49.3202],[4.3756,49.3238],[4.3438,49.314],[4.3415,49.3153],[4.3462,49.3222],[4.3375,49.326],[4.3083,49.3267],[4.288,49.3492],[4.2941,49.3527],[4.2864,49.3505],[4.2836,49.3545],[4.2771,49.3515],[4.2682,49.3597],[4.2584,49.3635],[4.2555,49.3661],[4.2593,49.3702],[4.2478,49.3778],[4.2483,49.3823],[4.2369,49.3813],[4.2137,49.3879],[4.2013,49.3838],[4.189,49.3987],[4.1914,49.401],[4.1568,49.401],[4.1432,49.4042],[4.132,49.4017],[4.0769,49.4016],[4.0734,49.4044],[4.048,49.4056],[4.0495,49.4156],[4.0423,49.4166],[4.0437,49.4287],[4.0377,49.4383],[4.0503,49.4476],[4.0521,49.4438],[4.0602,49.4472],[4.0679,49.4449],[4.0576,49.4512],[4.0549,49.4592],[4.0424,49.4687],[4.0407,49.5085],[4.0576,49.5082],[4.0619,49.5126],[4.0566,49.521],[4.0655,49.5233],[4.072,49.5164],[4.0758,49.5183],[4.0736,49.5235],[4.0774,49.5245],[4.0758,49.5415],[4.0488,49.5453],[4.0504,49.5515],[4.0583,49.5525],[4.0626,49.5563],[4.06,49.5584],[4.0625,49.5612],[4.0641,49.5596],[4.0668,49.5641],[4.0752,49.5657],[4.0766,49.5711],[4.0633,49.5712],[4.0595,49.5761],[4.0624,49.586],[4.0579,49.5915],[4.0665,49.5944],[4.0543,49.5952],[4.0524,49.6],[4.0473,49.5995],[4.0246,49.6213],[4.0379,49.6229],[4.0385,49.6283],[4.0434,49.633],[4.0404,49.6335],[4.0411,49.6383],[4.0557,49.6343],[4.069,49.6375],[4.0863,49.6293],[4.0992,49.6283],[4.1022,49.6326],[4.1158,49.6329],[4.1191,49.6385],[4.1167,49.6408],[4.1255,49.6511],[4.1221,49.6582],[4.127,49.6779],[4.1372,49.6759],[4.1368,49.6781],[4.1486,49.6783],[4.1442,49.6885],[4.1852,49.6989],[4.1842,49.7026],[4.1925,49.712],[4.1914,49.716],[4.2065,49.7235],[4.2319,49.7304],[4.2259,49.7328],[4.2297,49.7466],[4.2496,49.7571],[4.242,49.7625],[4.2428,49.7671],[4.2286,49.7731],[4.2139,49.7711],[4.2059,49.7782],[4.2224,49.7872],[4.2267,49.793],[4.219,49.8002],[4.2218,49.8045],[4.2143,49.8061],[4.2196,49.8143],[4.2236,49.8341],[4.2297,49.8361],[4.233,49.8484],[4.2488,49.8567],[4.2528,49.8697],[4.254,49.8869],[4.2509,49.8889],[4.2557,49.9032],[4.235,49.904],[4.2334,49.9094],[4.2218,49.9105],[4.217,49.9144],[4.2207,49.9372],[4.2299,49.9462],[4.2332,49.9577]]]}},{"type":"Feature","properties":{"code":"10","nom":"Aube"},"geometry":{"type":"Polygon","coordinates":[[[3.4148,48.3903],[3.4221,48.4162],[3.4025,48.4152],[3.4024,48.4177],[3.4115,48.4174],[3.4118,48.4213],[3.3917,48.4233],[3.3966,48.4327],[3.3952,48.4368],[3.4016,48.4357],[3.4049,48.4394],[3.4065,48.4524],[3.3944,48.4627],[3.3996,48.4677],[3.3912,48.4705],[3.3885,48.4772],[3.3834,48.4794],[3.3925,48.4816],[3.3935,48.4843],[3.3993,48.4836],[3.3981,48.4863],[3.404,48.486],[3.4051,48.4885],[3.4097,48.4857],[3.4204,48.4917],[3.4346,48.4903],[3.4349,48.4975],[3.4236,48.5148],[3.4054,48.528],[3.4142,48.5335],[3.44,48.5284],[3.4569,48.5296],[3.4757,48.5414],[3.4817,48.5414],[3.4791,48.5455],[3.4859,48.5473],[3.4764,48.5521],[3.4742,48.5645],[3.4655,48.5705],[3.4734,48.5769],[3.4853,48.5804],[3.4932,48.5902],[3.5159,48.5898],[3.5032,48.6046],[3.5346,48.6103],[3.5401,48.6126],[3.5408,48.616],[3.557,48.6159],[3.5585,48.6184],[3.5556,48.6203],[3.5632,48.6132],[3.5626,48.6026],[3.5799,48.6049],[3.5826,48.5855],[3.5927,48.5876],[3.6025,48.5798],[3.6042,48.5725],[3.6212,48.5802],[3.6263,48.5776],[3.6334,48.5686],[3.6287,48.5623],[3.6341,48.5482],[3.6318,48.547],[3.6336,48.5418],[3.6398,48.5382],[3.644,48.5407],[3.6436,48.5363],[3.6506,48.5392],[3.6522,48.536],[3.6569,48.5378],[3.6616,48.5347],[3.688,48.54],[3.7042,48.5335],[3.7384,48.5383],[3.7416,48.5341],[3.7589,48.5325],[3.7661,48.5281],[3.798,48.5291],[3.8026,48.5235],[3.8259,48.5152],[3.8514,48.5234],[3.8656,48.5379],[3.8659,48.5435],[3.86,48.5435],[3.8586,48.5582],[3.8624,48.5623],[3.8626,48.5685],[3.865,48.5682],[3.8636,48.5721],[3.8551,48.5728],[3.8539,48.5802],[3.8633,48.5783],[3.8716,48.5812],[3.8824,48.5767],[3.8877,48.579],[3.8919,48.5754],[3.9,48.5748],[3.9014,48.5797],[3.8972,48.5797],[3.9059,48.5873],[3.9084,48.6018],[3.9152,48.6022],[3.9157,48.6058],[3.9208,48.6064],[3.9492,48.6034],[3.9585,48.6229],[3.9684,48.6317],[3.9701,48.6269],[3.9787,48.6264],[3.9805,48.6295],[3.9768,48.631],[3.9847,48.6534],[4.0017,48.6639],[4.0301,48.6591],[4.047,48.662],[4.0535,48.6685],[4.0582,48.6663],[4.069,48.6791],[4.0693,48.6815],[4.0628,48.6821],[4.065,48.687],[4.0798,48.7011],[4.1311,48.6861],[4.149,48.7006],[4.1653,48.7076],[4.233,48.7023],[4.2431,48.7167],[4.2486,48.7147],[4.2463,48.7128],[4.2524,48.7086],[4.2641,48.706],[4.2994,48.7146],[4.3078,48.7089],[4.3118,48.7112],[4.3256,48.7003],[4.3282,48.6932],[4.3229,48.6837],[4.3248,48.6797],[4.3304,48.6813],[4.3342,48.6752],[4.333,48.6709],[4.3228,48.6638],[4.3284,48.6563],[4.3173,48.6517],[4.3344,48.6325],[4.3149,48.6162],[4.3306,48.602],[4.3496,48.5977],[4.3484,48.596],[4.3974,48.5639],[4.4206,48.5547],[4.4703,48.5472],[4.4939,48.5388],[4.511,48.5478],[4.5138,48.5449],[4.522,48.5451],[4.5212,48.5399],[4.5285,48.5404],[4.5256,48.5281],[4.5359,48.5288],[4.5454,48.5252],[4.5471,48.5348],[4.559,48.5434],[4.5743,48.5497],[4.5906,48.5478],[4.5958,48.5523],[4.6413,48.5539],[4.6349,48.5515],[4.6377,48.5419],[4.6463,48.5423],[4.651,48.537],[4.6665,48.5378],[4.676,48.5235],[4.6766,48.5175],[4.6581,48.5059],[4.6594,48.493],[4.6504,48.4775],[4.6535,48.4706],[4.6436,48.4707],[4.6346,48.4669],[4.6278,48.4686],[4.6312,48.4654],[4.6293,48.4612],[4.6558,48.4508],[4.66,48.4462],[4.6725,48.4453],[4.6784,48.4405],[4.6778,48.4321],[4.6895,48.4247],[4.6818,48.4176],[4.6936,48.4152],[4.7084,48.4012],[4.7001,48.3959],[4.7053,48.3909],[4.7172,48.3956],[4.7299,48.3922],[4.7478,48.3922],[4.7602,48.3876],[4.7546,48.3665],[4.7786,48.3562],[4.7853,48.3586],[4.7881,48.3552],[4.7943,48.3567],[4.8155,48.3448],[4.8325,48.3462],[4.84,48.342],[4.8415,48.3395],[4.8226,48.3311],[4.8142,48.323],[4.8252,48.3123],[4.8263,48.3022],[4.8375,48.3039],[4.8402,48.2985],[4.8509,48.2963],[4.8424,48.2836],[4.848,48.2755],[4.8616,48.2664],[4.8571,48.26],[4.845,48.2572],[4.8481,48.2511],[4.8432,48.2471],[4.8458,48.2471],[4.8459,48.2434],[4.8395,48.2375],[4.8478,48.239],[4.8539,48.2288],[4.8386,48.2249],[4.8353,48.2211],[4.8417,48.2144],[4.8616,48.2109],[4.8644,48.1992],[4.8471,48.1799],[4.8506,48.1761],[4.8369,48.1679],[4.8354,48.1617],[4.8399,48.1581],[4.837,48.1515],[4.8524,48.1427],[4.8461,48.142],[4.8407,48.134],[4.8286,48.1291],[4.8346,48.1149],[4.8344,48.1052],[4.8043,48.1048],[4.7633,48.1155],[4.744,48.115],[4.7319,48.1194],[4.7242,48.1062],[4.7136,48.1008],[4.7041,48.1001],[4.7061,48.0895],[4.6775,48.0812],[4.6676,48.083],[4.6575,48.0792],[4.6905,48.0727],[4.6999,48.066],[4.711,48.0499],[4.7232,48.0458],[4.7218,48.0404],[4.7107,48.0362],[4.705,48.0277],[4.7145,48.0212],[4.7042,48.0202],[4.6986,48.0237],[4.6732,48.0151],[4.6655,48.0208],[4.6558,48.0175],[4.6552,48.0209],[4.6477,48.0257],[4.622,48.0243],[4.6168,48.0314],[4.6068,48.0285],[4.5786,48.0291],[4.5633,48.0152],[4.5556,48.0136],[4.5494,48.0045],[4.5358,48.0066],[4.5409,47.9921],[4.5549,47.986],[4.5571,47.9819],[4.56,47.9714],[4.5542,47.9675],[4.5316,47.9699],[4.515,47.9662],[4.4933,47.9682],[4.483,47.9632],[4.447,47.9562],[4.4179,47.9685],[4.3838,47.9597],[4.3686,47.962],[4.3663,47.9582],[4.3432,47.9559],[4.3128,47.9625],[4.309,47.9612],[4.3027,47.9507],[4.2979,47.9497],[4.3029,47.9385],[4.2934,47.9257],[4.2737,47.9235],[4.2455,47.9297],[4.2371,47.9407],[4.2222,47.9497],[4.2281,47.961],[4.226,47.9719],[4.2024,47.973],[4.1928,47.9646],[4.2027,47.9598],[4.2131,47.9619],[4.2031,47.9592],[4.2073,47.9528],[4.2059,47.9433],[4.193,47.9393],[4.1854,47.9402],[4.1842,47.9554],[4.1663,47.9598],[4.156,47.9557],[4.1402,47.9427],[4.1418,47.9371],[4.1304,47.9368],[4.1096,47.926],[4.1071,47.9298],[4.0921,47.9282],[4.0938,47.934],[4.09,47.9362],[4.093,47.943],[4.0897,47.945],[4.0779,47.9428],[4.0609,47.9457],[4.0564,47.9406],[4.0589,47.9317],[4.0448,47.9251],[4.0313,47.9332],[4.0256,47.9283],[4.0181,47.9285],[4.0126,47.9321],[4.0136,47.9368],[4.0039,47.942],[3.9856,47.9305],[3.9626,47.936],[3.9481,47.9309],[3.9454,47.9347],[3.9353,47.932],[3.9264,47.9346],[3.9185,47.928],[3.9117,47.9301],[3.9053,47.925],[3.894,47.9293],[3.9036,47.9383],[3.8995,47.9407],[3.9037,47.9463],[3.9047,47.9581],[3.9147,47.9757],[3.9022,47.9952],[3.8934,48.0017],[3.8817,48.0003],[3.8854,47.9915],[3.8777,47.987],[3.8833,47.9852],[3.88,47.9792],[3.8728,47.9774],[3.8618,47.9764],[3.8659,47.9844],[3.85,47.9837],[3.847,47.9946],[3.8393,47.9991],[3.8398,48.0039],[3.8549,48.0035],[3.8637,48.007],[3.8707,48.0029],[3.8706,48.0168],[3.8472,48.0293],[3.8426,48.0362],[3.8321,48.0362],[3.822,48.0439],[3.8302,48.0471],[3.8241,48.0531],[3.8295,48.0577],[3.8055,48.0822],[3.8069,48.0842],[3.7981,48.0865],[3.7998,48.0969],[3.8056,48.1005],[3.7917,48.1176],[3.7799,48.1206],[3.7764,48.1243],[3.7774,48.1285],[3.768,48.1338],[3.7621,48.1318],[3.7569,48.1253],[3.7397,48.1328],[3.7429,48.1429],[3.7548,48.1502],[3.7475,48.1662],[3.7185,48.1754],[3.7135,48.1739],[3.7211,48.1624],[3.7216,48.1553],[3.705,48.1443],[3.7003,48.145],[3.693,48.1546],[3.6936,48.148],[3.6909,48.145],[3.6679,48.1392],[3.6606,48.1589],[3.6507,48.1682],[3.6415,48.1839],[3.6349,48.1879],[3.6217,48.192],[3.5942,48.1789],[3.5798,48.1843],[3.5752,48.1887],[3.5999,48.2023],[3.6216,48.2257],[3.6148,48.2318],[3.6079,48.2326],[3.6047,48.2299],[3.5998,48.2359],[3.6153,48.2509],[3.6243,48.2545],[3.6168,48.2713],[3.6019,48.2759],[3.6004,48.2795],[3.5872,48.2802],[3.5778,48.2846],[3.5857,48.2901],[3.588,48.3008],[3.5826,48.3012],[3.5801,48.306],[3.5666,48.3074],[3.5611,48.3119],[3.565,48.3133],[3.5634,48.3214],[3.5439,48.3198],[3.5451,48.3345],[3.5204,48.3493],[3.5216,48.3515],[3.5135,48.36],[3.5045,48.3658],[3.4976,48.3696],[3.4749,48.3693],[3.4675,48.3757],[3.4508,48.3739],[3.448,48.3725],[3.4483,48.3684],[3.4274,48.3581],[3.4217,48.3717],[3.4133,48.3763],[3.4148,48.3903]]]}},{"type":"Feature","properties":{"code":"51","nom":"Marne"},"geometry":{"type":"Polygon","coordinates":[[[4.048,49.4056],[4.0734,49.4044],[4.0769,49.4016],[4.132,49.4017],[4.1432,49.4042],[4.1568,49.401],[4.1914,49.401],[4.189,49.3987],[4.2013,49.3838],[4.2137,49.3879],[4.2369,49.3813],[4.2483,49.3823],[4.2478,49.3778],[4.2593,49.3702],[4.2555,49.3661],[4.2584,49.3635],[4.2682,49.3597],[4.2771,49.3515],[4.2836,49.3545],[4.2864,49.3505],[4.2941,49.3527],[4.288,49.3492],[4.3083,49.3267],[4.3375,49.326],[4.3462,49.3222],[4.3415,49.3153],[4.3438,49.314],[4.3756,49.3238],[4.3741,49.3202],[4.3962,49.2922],[4.4035,49.2935],[4.4089,49.2865],[4.4167,49.2878],[4.4226,49.2806],[4.4395,49.2801],[4.4472,49.2725],[4.4595,49.2776],[4.4838,49.2808],[4.516,49.2802],[4.5412,49.2862],[4.5571,49.2953],[4.568,49.2965],[4.5727,49.2937],[4.5759,49.2966],[4.5845,49.2934],[4.5837,49.2909],[4.5979,49.2914],[4.6,49.2886],[4.5899,49.281],[4.5939,49.2798],[4.5909,49.277],[4.5921,49.2734],[4.608,49.2693],[4.611,49.2571],[4.6197,49.247],[4.6186,49.2386],[4.6323,49.2351],[4.6343,49.2318],[4.6705,49.2412],[4.6799,49.2531],[4.6889,49.2575],[4.7038,49.2554],[4.7038,49.2509],[4.727,49.2535],[4.7442,49.2415],[4.7731,49.2451],[4.7907,49.2411],[4.8005,49.2442],[4.8023,49.2477],[4.8154,49.2499],[4.8171,49.2415],[4.8299,49.2431],[4.8258,49.2367],[4.8308,49.2334],[4.8368,49.2355],[4.8665,49.2266],[4.8674,49.2361],[4.8616,49.2367],[4.8618,49.2399],[4.878,49.2494],[4.8781,49.2555],[4.883,49.2565],[4.8774,49.2627],[4.8928,49.2581],[4.9012,49.2625],[4.924,49.2665],[4.9169,49.2604],[4.9271,49.262],[4.9343,49.2596],[4.9216,49.2521],[4.9459,49.2438],[4.9501,49.2414],[4.951,49.2369],[4.9708,49.2361],[4.978,49.2189],[4.9934,49.2099],[4.9785,49.1999],[4.9602,49.1969],[4.9398,49.1851],[4.9519,49.1744],[4.9641,49.1558],[4.9714,49.1368],[4.9897,49.118],[4.9966,49.1066],[4.9965,49.0882],[5.0057,49.0599],[5.0005,49.055],[5.0035,49.0533],[4.9654,49.0214],[5.0102,49.0351],[5.0365,49.0238],[5.0354,49.0192],[5.0397,49.0194],[5.0366,49.0176],[5.0388,49.0107],[5.0314,49.0061],[5.0346,48.9935],[5.018,48.9959],[5.0047,48.993],[5.0014,48.9903],[5.0023,48.987],[4.9938,48.9842],[5.0046,48.9836],[5.0077,48.9788],[5.0162,48.9815],[5.0172,48.9776],[5.0283,48.9796],[5.0395,48.9739],[5.0321,48.9644],[5.0309,48.9542],[5.0226,48.9511],[5.0217,48.9468],[5.0141,48.9456],[5.0141,48.9374],[5.0003,48.9383],[4.9875,48.9321],[4.9593,48.9259],[4.9507,48.9309],[4.9362,48.9221],[4.9375,48.9177],[4.9326,48.9153],[4.9335,48.9126],[4.9188,48.9056],[4.9124,48.8982],[4.9247,48.8914],[4.9202,48.8854],[4.9192,48.8772],[4.9117,48.8687],[4.9253,48.864],[4.9214,48.8606],[4.9246,48.8562],[4.9304,48.856],[4.928,48.85],[4.9374,48.8481],[4.937,48.8425],[4.9146,48.8351],[4.8889,48.8169],[4.8968,48.8088],[4.8886,48.8006],[4.8952,48.7961],[4.9125,48.7946],[4.9215,48.7927],[4.9207,48.7906],[4.9331,48.7914],[4.9378,48.7865],[4.9351,48.7832],[4.9502,48.7688],[4.9568,48.7673],[4.965,48.7586],[4.9723,48.7576],[4.9782,48.7532],[4.9814,48.7456],[4.9901,48.7418],[5.0092,48.7414],[5.0058,48.7353],[5.0097,48.7294],[5.0046,48.7197],[5.0114,48.7179],[5.016,48.7095],[5.0118,48.7067],[5.0018,48.7113],[4.9973,48.7096],[5.0064,48.6991],[4.9991,48.6932],[4.9909,48.6932],[4.9912,48.6868],[4.9884,48.6844],[4.9763,48.6893],[4.9549,48.6846],[4.9515,48.6887],[4.9387,48.6748],[4.9113,48.6887],[4.8949,48.6782],[4.8778,48.6751],[4.8678,48.6672],[4.8499,48.6677],[4.8492,48.6717],[4.821,48.6749],[4.82,48.6799],[4.8171,48.6804],[4.7983,48.6775],[4.7955,48.6694],[4.7817,48.6702],[4.7719,48.6519],[4.8076,48.6543],[4.842,48.6497],[4.8391,48.6458],[4.8419,48.6425],[4.8463,48.6434],[4.8536,48.6348],[4.8483,48.6279],[4.8512,48.6272],[4.8486,48.6225],[4.8525,48.6211],[4.8512,48.6155],[4.858,48.6143],[4.857,48.612],[4.8469,48.6145],[4.8396,48.6113],[4.8297,48.6125],[4.8216,48.6056],[4.8171,48.607],[4.7968,48.5953],[4.7848,48.5995],[4.7754,48.5928],[4.7643,48.5948],[4.7692,48.5887],[4.7714,48.5723],[4.776,48.566],[4.7881,48.5701],[4.7963,48.568],[4.7828,48.5542],[4.7949,48.5398],[4.7992,48.5298],[4.7913,48.5285],[4.7809,48.5331],[4.7618,48.5336],[4.718,48.542],[4.7073,48.5371],[4.6813,48.535],[4.6749,48.5376],[4.6702,48.5319],[4.6665,48.5378],[4.651,48.537],[4.6463,48.5423],[4.6377,48.5419],[4.6349,48.5515],[4.6423,48.5522],[4.6306,48.5547],[4.621,48.5518],[4.5958,48.5523],[4.5906,48.5478],[4.5683,48.5482],[4.5488,48.5366],[4.5454,48.5252],[4.5359,48.5288],[4.5256,48.5281],[4.5285,48.5404],[4.5212,48.5399],[4.522,48.5451],[4.5138,48.5449],[4.511,48.5478],[4.4939,48.5388],[4.4703,48.5472],[4.4397,48.5498],[4.4092,48.5588],[4.3974,48.5639],[4.3484,48.596],[4.3496,48.5977],[4.3306,48.602],[4.3149,48.6162],[4.3344,48.6325],[4.3173,48.6517],[4.3284,48.6563],[4.3228,48.6638],[4.333,48.6709],[4.3342,48.6752],[4.3304,48.6813],[4.3248,48.6797],[4.3229,48.6837],[4.3282,48.6932],[4.3256,48.7003],[4.3118,48.7112],[4.3078,48.7089],[4.2994,48.7146],[4.2641,48.706],[4.2524,48.7086],[4.2463,48.7128],[4.2486,48.7147],[4.2431,48.7167],[4.233,48.7023],[4.1653,48.7076],[4.149,48.7006],[4.1311,48.6861],[4.0798,48.7011],[4.065,48.687],[4.0628,48.6821],[4.0693,48.6815],[4.069,48.6791],[4.0582,48.6663],[4.0535,48.6685],[4.047,48.662],[4.0301,48.6591],[4.0017,48.6639],[3.9847,48.6534],[3.9768,48.631],[3.9805,48.6295],[3.9787,48.6264],[3.9701,48.6269],[3.9684,48.6317],[3.9585,48.6229],[3.9492,48.6034],[3.9208,48.6064],[3.9157,48.6058],[3.9152,48.6022],[3.9084,48.6018],[3.9059,48.5873],[3.8972,48.5797],[3.9014,48.5797],[3.9,48.5748],[3.8919,48.5754],[3.8877,48.579],[3.8824,48.5767],[3.8716,48.5812],[3.8633,48.5783],[3.8539,48.5802],[3.8551,48.5728],[3.8636,48.5721],[3.865,48.5682],[3.8626,48.5685],[3.8624,48.5623],[3.8586,48.5582],[3.86,48.5435],[3.8659,48.5435],[3.8656,48.5379],[3.8514,48.5234],[3.8259,48.5152],[3.8026,48.5235],[3.798,48.5291],[3.7661,48.5281],[3.7589,48.5325],[3.7416,48.5341],[3.7384,48.5383],[3.7042,48.5335],[3.688,48.54],[3.6616,48.5347],[3.6569,48.5378],[3.6522,48.536],[3.6506,48.5392],[3.6436,48.5363],[3.644,48.5407],[3.6398,48.5382],[3.6336,48.5418],[3.6318,48.547],[3.6341,48.5482],[3.6287,48.5623],[3.6334,48.5686],[3.6263,48.5776],[3.6212,48.5802],[3.6042,48.5725],[3.6025,48.5798],[3.5927,48.5876],[3.5826,48.5855],[3.5799,48.6049],[3.5626,48.6026],[3.5632,48.6132],[3.5548,48.622],[3.538,48.6316],[3.5191,48.6335],[3.5174,48.6372],[3.5332,48.6465],[3.5175,48.6434],[3.4929,48.6476],[3.4766,48.6373],[3.4511,48.6347],[3.4604,48.653],[3.4406,48.6636],[3.4462,48.6669],[3.4427,48.6725],[3.4495,48.6758],[3.4476,48.6773],[3.4627,48.6855],[3.4717,48.6857],[3.4726,48.6979],[3.4778,48.6979],[3.4643,48.7074],[3.4673,48.7086],[3.4653,48.7119],[3.4697,48.7379],[3.4441,48.7366],[3.4363,48.7437],[3.4366,48.7532],[3.4285,48.7584],[3.4234,48.7539],[3.4091,48.7523],[3.3991,48.755],[3.3958,48.7593],[3.4089,48.7839],[3.4241,48.7841],[3.4295,48.7794],[3.4382,48.7851],[3.4419,48.7824],[3.444,48.7914],[3.4399,48.7981],[3.4421,48.8036],[3.423,48.8008],[3.4111,48.8037],[3.4042,48.8093],[3.4166,48.8178],[3.4322,48.8123],[3.4482,48.8111],[3.4704,48.8209],[3.4809,48.8122],[3.4872,48.8152],[3.485,48.825],[3.4913,48.8347],[3.4852,48.8519],[3.4864,48.8581],[3.4818,48.8659],[3.5019,48.8719],[3.509,48.8853],[3.5083,48.8904],[3.5286,48.9121],[3.5326,48.9106],[3.5431,48.9154],[3.5499,48.9136],[3.56,48.917],[3.5642,48.9113],[3.5707,48.9149],[3.5764,48.9233],[3.573,48.925],[3.5744,48.939],[3.5927,48.9446],[3.6025,48.9439],[3.5992,48.9511],[3.6016,48.9535],[3.5916,48.9604],[3.6009,48.9663],[3.6054,48.964],[3.6104,48.9669],[3.6212,48.966],[3.6266,48.9798],[3.6233,48.9827],[3.6399,49.0041],[3.6603,49.0043],[3.6777,49.014],[3.679,49.0183],[3.6635,49.0373],[3.6501,49.0428],[3.6426,49.037],[3.6313,49.0397],[3.6168,49.0365],[3.6157,49.0336],[3.5876,49.0338],[3.5852,49.0389],[3.5877,49.0594],[3.5999,49.062],[3.6091,49.0731],[3.6238,49.0709],[3.6385,49.0774],[3.6391,49.0813],[3.6321,49.0862],[3.6118,49.1181],[3.6031,49.1147],[3.6,49.1207],[3.6117,49.1287],[3.6096,49.135],[3.6145,49.1391],[3.6206,49.1392],[3.6188,49.1433],[3.6223,49.1511],[3.6534,49.1487],[3.6873,49.1542],[3.698,49.1498],[3.7027,49.1414],[3.7076,49.1431],[3.7061,49.1453],[3.7396,49.1569],[3.7488,49.1571],[3.7511,49.1777],[3.7301,49.1783],[3.7254,49.1735],[3.7112,49.1782],[3.7044,49.1814],[3.7069,49.1859],[3.6973,49.1884],[3.6969,49.1945],[3.7019,49.1944],[3.7049,49.1986],[3.6986,49.2055],[3.6929,49.2056],[3.6898,49.2007],[3.6816,49.1975],[3.6761,49.2009],[3.6818,49.2053],[3.6704,49.2097],[3.6625,49.209],[3.6528,49.2154],[3.6563,49.2184],[3.6515,49.2216],[3.6636,49.2219],[3.6704,49.228],[3.67,49.2329],[3.6782,49.2353],[3.675,49.2401],[3.6686,49.2409],[3.67,49.2432],[3.666,49.2464],[3.6607,49.2601],[3.6581,49.2605],[3.6539,49.2542],[3.6554,49.2634],[3.6615,49.27],[3.6516,49.2784],[3.6526,49.2828],[3.659,49.2868],[3.6573,49.291],[3.6428,49.2961],[3.6383,49.3014],[3.6435,49.303],[3.6439,49.3127],[3.6652,49.3198],[3.6692,49.3248],[3.6891,49.3269],[3.7013,49.3325],[3.7422,49.3365],[3.7411,49.3476],[3.7578,49.3476],[3.7775,49.3558],[3.7797,49.3519],[3.8022,49.3589],[3.8241,49.3573],[3.8241,49.354],[3.8528,49.345],[3.8587,49.3541],[3.8479,49.3646],[3.8561,49.3642],[3.8526,49.3657],[3.8598,49.3727],[3.8563,49.3812],[3.8597,49.3818],[3.8598,49.3862],[3.8396,49.391],[3.8367,49.3967],[3.8224,49.4024],[3.8463,49.4006],[3.8453,49.4031],[3.8552,49.4012],[3.8696,49.4067],[3.8812,49.4053],[3.8933,49.3991],[3.8957,49.3928],[3.9103,49.3948],[3.915,49.3984],[3.9147,49.4035],[3.9252,49.4076],[3.9338,49.4019],[3.9315,49.4008],[3.9447,49.3899],[3.9426,49.3889],[3.9613,49.3773],[3.9949,49.3779],[3.9963,49.3717],[3.999,49.3724],[4.0007,49.3687],[4.0069,49.3696],[4.0127,49.3583],[4.0355,49.3599],[4.0399,49.3974],[4.048,49.4056]]]}},{"type":"Feature","properties":{"code":"52","nom":"Haute-Marne"},"geometry":{"type":"Polygon","coordinates":[[[4.6702,48.5319],[4.6749,48.5376],[4.6813,48.535],[4.7073,48.5371],[4.718,48.542],[4.7618,48.5336],[4.7809,48.5331],[4.7913,48.5285],[4.7992,48.5298],[4.7949,48.5398],[4.7828,48.5542],[4.7963,48.568],[4.7881,48.5701],[4.776,48.566],[4.7714,48.5723],[4.7692,48.5887],[4.7643,48.5948],[4.7754,48.5928],[4.7848,48.5995],[4.7968,48.5953],[4.8171,48.607],[4.8216,48.6056],[4.8297,48.6125],[4.8396,48.6113],[4.8469,48.6145],[4.857,48.612],[4.858,48.6143],[4.8512,48.6155],[4.8525,48.6211],[4.8486,48.6225],[4.8512,48.6272],[4.8483,48.6279],[4.8536,48.6348],[4.8463,48.6434],[4.8419,48.6425],[4.8391,48.6458],[4.842,48.6497],[4.8076,48.6543],[4.7719,48.6519],[4.7817,48.6702],[4.7955,48.6694],[4.7983,48.6775],[4.8171,48.6804],[4.82,48.6799],[4.821,48.6749],[4.8492,48.6717],[4.8499,48.6677],[4.8678,48.6672],[4.8778,48.6751],[4.8949,48.6782],[4.9113,48.6887],[4.9387,48.6748],[4.9515,48.6887],[4.9549,48.6846],[4.9763,48.6893],[5.0046,48.6819],[5.0091,48.6786],[5.0086,48.669],[5.0111,48.6678],[4.9928,48.6583],[4.9947,48.6462],[5.0062,48.6335],[4.9978,48.6279],[5.0002,48.6268],[4.9963,48.6256],[4.9988,48.6237],[4.9947,48.6218],[5.0007,48.6137],[5.0141,48.6102],[5.0329,48.6136],[5.052,48.6333],[5.0567,48.6323],[5.0596,48.6125],[5.0638,48.6108],[5.0709,48.5957],[5.0957,48.5929],[5.1194,48.5957],[5.1213,48.5928],[5.1179,48.5849],[5.1253,48.5821],[5.127,48.5765],[5.1463,48.5603],[5.1672,48.565],[5.1731,48.5563],[5.1968,48.5467],[5.1951,48.5377],[5.2084,48.5386],[5.2065,48.5361],[5.2123,48.5288],[5.2219,48.5265],[5.2274,48.532],[5.2392,48.5257],[5.2629,48.52],[5.2711,48.5136],[5.2862,48.5155],[5.2892,48.5105],[5.2962,48.5084],[5.3056,48.5159],[5.317,48.5084],[5.3275,48.5094],[5.3285,48.503],[5.3449,48.4906],[5.347,48.4838],[5.358,48.4776],[5.3677,48.477],[5.3814,48.4711],[5.3977,48.4738],[5.406,48.4654],[5.4032,48.4541],[5.4091,48.4447],[5.4333,48.432],[5.4387,48.4353],[5.4452,48.4251],[5.4508,48.4227],[5.4683,48.4238],[5.4701,48.4209],[5.4593,48.4162],[5.4466,48.4153],[5.4431,48.4106],[5.4212,48.3989],[5.4196,48.395],[5.3939,48.3916],[5.4074,48.3827],[5.4429,48.3794],[5.4185,48.3607],[5.4175,48.3573],[5.4227,48.3516],[5.417,48.3427],[5.4268,48.3312],[5.4454,48.3376],[5.4618,48.3521],[5.4691,48.349],[5.481,48.3564],[5.4978,48.3554],[5.5063,48.3504],[5.5265,48.3469],[5.5224,48.3409],[5.5253,48.3381],[5.5246,48.3336],[5.5373,48.3183],[5.5717,48.2925],[5.5889,48.2756],[5.6133,48.2911],[5.6538,48.2685],[5.6511,48.2566],[5.6449,48.2515],[5.6415,48.2418],[5.6774,48.229],[5.6878,48.2342],[5.7182,48.2145],[5.7212,48.207],[5.7301,48.1983],[5.731,48.1897],[5.7018,48.1904],[5.6872,48.1803],[5.6796,48.1793],[5.6868,48.1665],[5.6845,48.1536],[5.6813,48.1508],[5.6854,48.1506],[5.6851,48.1467],[5.6769,48.1451],[5.6748,48.1386],[5.6771,48.1367],[5.6625,48.1288],[5.6618,48.1236],[5.6574,48.1217],[5.6616,48.1152],[5.6676,48.1161],[5.6721,48.1094],[5.6494,48.105],[5.6374,48.0976],[5.6388,48.0888],[5.6339,48.0902],[5.629,48.0844],[5.6442,48.0795],[5.6466,48.0727],[5.6559,48.0691],[5.6613,48.072],[5.6528,48.0804],[5.6532,48.084],[5.6575,48.0862],[5.6733,48.0788],[5.6751,48.0819],[5.6884,48.0754],[5.6968,48.0772],[5.6988,48.0668],[5.7089,48.0654],[5.7213,48.0527],[5.7205,48.0442],[5.74,48.0501],[5.7644,48.0348],[5.7645,48.0299],[5.777,48.0335],[5.7764,48.0224],[5.7807,48.0209],[5.7856,48.0129],[5.7868,48.0023],[5.7947,47.998],[5.7932,47.9871],[5.7785,47.978],[5.7804,47.9699],[5.7859,47.9645],[5.784,47.962],[5.7873,47.9526],[5.8036,47.9497],[5.8053,47.947],[5.8093,47.9487],[5.8111,47.9552],[5.8177,47.958],[5.8316,47.9578],[5.84,47.965],[5.8428,47.9756],[5.8458,47.9757],[5.8466,47.9695],[5.8536,47.9699],[5.8542,47.9658],[5.8495,47.9651],[5.8496,47.9606],[5.8575,47.9451],[5.8686,47.945],[5.8697,47.9393],[5.8753,47.9382],[5.8848,47.9295],[5.8834,47.9215],[5.8896,47.9206],[5.8864,47.9159],[5.8909,47.9108],[5.8873,47.9036],[5.8828,47.9],[5.8513,47.906],[5.8484,47.9043],[5.8449,47.8967],[5.8375,47.8912],[5.8386,47.8854],[5.8207,47.8691],[5.8281,47.858],[5.8178,47.8533],[5.8297,47.8562],[5.828,47.8519],[5.7961,47.8468],[5.7989,47.8557],[5.7748,47.858],[5.7673,47.8556],[5.7612,47.8593],[5.7561,47.8533],[5.7442,47.8488],[5.7436,47.8424],[5.7481,47.8384],[5.7456,47.8295],[5.7511,47.829],[5.7453,47.8267],[5.7408,47.8192],[5.7303,47.8177],[5.7217,47.8217],[5.7011,47.8236],[5.6899,47.8191],[5.6815,47.8091],[5.6766,47.7792],[5.6821,47.7755],[5.68,47.77],[5.7075,47.7675],[5.7093,47.7571],[5.7061,47.7515],[5.7096,47.7453],[5.6904,47.7351],[5.6887,47.7305],[5.6952,47.726],[5.6871,47.7225],[5.6883,47.7194],[5.6834,47.7167],[5.6858,47.7151],[5.6841,47.712],[5.6935,47.7048],[5.6946,47.6916],[5.6911,47.6846],[5.6875,47.6857],[5.6859,47.6829],[5.6812,47.6863],[5.6754,47.6819],[5.6635,47.6849],[5.648,47.6753],[5.6303,47.677],[5.6116,47.6732],[5.6012,47.6752],[5.5967,47.6717],[5.5928,47.6819],[5.5846,47.6907],[5.5851,47.7002],[5.5674,47.7071],[5.5298,47.6728],[5.512,47.6736],[5.4828,47.6846],[5.4703,47.675],[5.4475,47.6708],[5.4338,47.6713],[5.4202,47.6777],[5.4063,47.6734],[5.4026,47.6567],[5.399,47.6532],[5.4002,47.6485],[5.4058,47.6469],[5.3858,47.6351],[5.3726,47.6184],[5.3741,47.6045],[5.367,47.6047],[5.3556,47.5915],[5.3407,47.5962],[5.3455,47.6047],[5.341,47.6084],[5.3223,47.6124],[5.3145,47.6062],[5.2982,47.6043],[5.294,47.5979],[5.2778,47.5898],[5.2779,47.5814],[5.2531,47.5769],[5.2476,47.5898],[5.238,47.5965],[5.2586,47.6222],[5.2369,47.6168],[5.2374,47.621],[5.2292,47.6256],[5.2302,47.6295],[5.2213,47.6322],[5.2114,47.6419],[5.1736,47.6526],[5.1733,47.6665],[5.1783,47.681],[5.1619,47.6805],[5.155,47.6672],[5.1428,47.6557],[5.1353,47.6537],[5.1386,47.6509],[5.1254,47.6468],[5.1169,47.652],[5.1089,47.6497],[5.1034,47.6541],[5.104,47.6589],[5.0861,47.6566],[5.0833,47.6604],[5.0782,47.6601],[5.0761,47.6654],[5.0715,47.6642],[5.0692,47.6686],[5.0674,47.665],[5.067,47.6678],[5.0535,47.6683],[5.0436,47.6765],[5.0504,47.6801],[5.0525,47.688],[5.0606,47.6948],[5.0555,47.6973],[5.0536,47.6942],[5.0288,47.6933],[5.0339,47.7016],[5.0336,47.7079],[5.0291,47.7099],[5.0046,47.7012],[5.0036,47.6937],[4.9967,47.69],[4.9691,47.6858],[4.972,47.6916],[4.9541,47.7015],[4.9538,47.7069],[4.9644,47.7134],[4.9635,47.7222],[4.9717,47.7294],[4.97,47.7355],[4.9568,47.7325],[4.9661,47.7406],[4.9599,47.7516],[4.959,47.7619],[4.9508,47.7626],[4.9474,47.7666],[4.9422,47.7626],[4.9227,47.7589],[4.9267,47.7648],[4.9171,47.7669],[4.9209,47.7672],[4.9208,47.7728],[4.9238,47.7734],[4.918,47.7771],[4.9823,47.8001],[4.9939,47.8129],[4.9888,47.8186],[4.9941,47.8197],[4.986,47.8225],[4.9847,47.8289],[4.9684,47.8319],[4.9662,47.8394],[4.9604,47.8394],[4.9634,47.8522],[4.9541,47.8668],[4.9402,47.867],[4.9275,47.8715],[4.93,47.875],[4.9272,47.8788],[4.9286,47.8862],[4.9154,47.8978],[4.914,47.9056],[4.9029,47.921],[4.8928,47.9227],[4.8693,47.9175],[4.8708,47.9153],[4.8592,47.9018],[4.8604,47.8963],[4.834,47.9068],[4.8295,47.9123],[4.8312,47.9179],[4.8394,47.9226],[4.8468,47.9213],[4.8464,47.9274],[4.8661,47.9405],[4.8577,47.9521],[4.8452,47.9612],[4.8275,47.9609],[4.8198,47.9645],[4.8194,47.9604],[4.811,47.9593],[4.7936,47.9623],[4.7911,47.9654],[4.7865,47.9642],[4.7857,47.9715],[4.795,47.9845],[4.8084,47.9868],[4.8092,47.9901],[4.7932,47.9965],[4.7934,48.0029],[4.7891,48.0078],[4.7493,48.0042],[4.7199,48.0089],[4.7222,48.0101],[4.7155,48.0115],[4.7042,48.0202],[4.7145,48.0212],[4.705,48.0277],[4.7107,48.0362],[4.7218,48.0404],[4.7232,48.0458],[4.711,48.0499],[4.6999,48.066],[4.6905,48.0727],[4.6575,48.0792],[4.6676,48.083],[4.6775,48.0812],[4.7061,48.0895],[4.7041,48.1001],[4.7136,48.1008],[4.7242,48.1062],[4.7319,48.1194],[4.744,48.115],[4.7633,48.1155],[4.8043,48.1048],[4.8344,48.1052],[4.8346,48.1149],[4.8286,48.1291],[4.8407,48.134],[4.8461,48.142],[4.8524,48.1427],[4.837,48.1515],[4.8399,48.1581],[4.8354,48.1617],[4.8369,48.1679],[4.8506,48.1761],[4.8471,48.1799],[4.8644,48.1992],[4.8616,48.2109],[4.8417,48.2144],[4.8353,48.2211],[4.8386,48.2249],[4.8539,48.2288],[4.8478,48.239],[4.8395,48.2375],[4.8459,48.2434],[4.8458,48.2471],[4.8432,48.2471],[4.8481,48.2511],[4.845,48.2572],[4.8571,48.26],[4.8616,48.2664],[4.848,48.2755],[4.8424,48.2836],[4.8509,48.2963],[4.8402,48.2985],[4.8375,48.3039],[4.8263,48.3022],[4.8252,48.3123],[4.8142,48.323],[4.8226,48.3311],[4.8415,48.3395],[4.84,48.342],[4.8325,48.3462],[4.8155,48.3448],[4.7943,48.3567],[4.7881,48.3552],[4.7853,48.3586],[4.7786,48.3562],[4.7546,48.3665],[4.7602,48.3876],[4.7478,48.3922],[4.7299,48.3922],[4.7172,48.3956],[4.7053,48.3909],[4.7001,48.3959],[4.7084,48.4012],[4.6936,48.4152],[4.6818,48.4176],[4.6895,48.4247],[4.6778,48.4321],[4.6784,48.4405],[4.6725,48.4453],[4.66,48.4462],[4.6558,48.4508],[4.6293,48.4612],[4.6312,48.4654],[4.6278,48.4686],[4.6346,48.4669],[4.6436,48.4707],[4.6535,48.4706],[4.6504,48.4775],[4.6594,48.493],[4.6581,48.5059],[4.6766,48.5175],[4.6702,48.5319]]]}},{"type":"Feature","properties":{"code":"54","nom":"Meurthe-et-Moselle"},"geometry":{"type":"MultiPolygon","coordinates":[[[[5.4524,49.4124],[5.4715,49.4199],[5.4709,49.4128],[5.4515,49.4068],[5.4524,49.4124]]],[[[5.426,49.4861],[5.4348,49.4905],[5.4343,49.4971],[5.442,49.5036],[5.471,49.4869],[5.4602,49.488],[5.4555,49.4809],[5.4407,49.487],[5.426,49.4861]]],[[[5.4709,49.4972],[5.4786,49.4998],[5.4838,49.5071],[5.5019,49.5068],[5.5412,49.5153],[5.5453,49.5232],[5.556,49.5292],[5.5934,49.5219],[5.6023,49.5156],[5.6036,49.5087],[5.611,49.5059],[5.6214,49.5196],[5.6159,49.5271],[5.6203,49.5332],[5.6328,49.5396],[5.6305,49.5419],[5.6342,49.5442],[5.6436,49.5469],[5.643,49.55],[5.6605,49.5536],[5.6692,49.5485],[5.69,49.5464],[5.7021,49.5393],[5.7188,49.5395],[5.7245,49.5443],[5.7333,49.5455],[5.7386,49.5386],[5.7573,49.5431],[5.7556,49.5561],[5.7595,49.558],[5.7583,49.5612],[5.7714,49.5632],[5.792,49.5517],[5.8157,49.5483],[5.8175,49.5456],[5.8082,49.5426],[5.8172,49.537],[5.837,49.5425],[5.8459,49.5299],[5.8357,49.5273],[5.8346,49.5234],[5.8366,49.5196],[5.8486,49.5144],[5.8506,49.5083],[5.8691,49.4988],[5.8934,49.4969],[5.892,49.4944],[5.8954,49.4925],[5.8979,49.4808],[5.9065,49.4859],[5.9128,49.4818],[5.9296,49.4853],[5.929,49.4823],[5.9401,49.4776],[5.9413,49.4757],[5.9317,49.4716],[5.9394,49.4663],[5.9385,49.4587],[5.9427,49.4514],[5.9309,49.4463],[5.9423,49.4303],[5.9287,49.4271],[5.9173,49.4158],[5.9201,49.4133],[5.9119,49.4077],[5.9272,49.4045],[5.9331,49.3961],[5.9327,49.3835],[5.9359,49.3787],[5.9249,49.373],[5.9352,49.3692],[5.9401,49.3604],[5.9561,49.3616],[5.9618,49.356],[5.9596,49.3513],[5.963,49.3465],[5.9784,49.3449],[5.9445,49.3416],[5.9414,49.3354],[5.9493,49.3338],[5.9498,49.3283],[5.9637,49.3191],[5.9693,49.3198],[5.9852,49.3052],[5.9971,49.3142],[6.0037,49.3119],[6.0064,49.3017],[6.0025,49.2974],[6.0001,49.2776],[6.0098,49.2725],[6.0063,49.2687],[6.0105,49.2664],[6.0052,49.2571],[6.0114,49.2607],[6.0126,49.2574],[6.032,49.2512],[6.0251,49.2426],[6.0301,49.2314],[6.0206,49.2294],[6.0193,49.2265],[6.023,49.2236],[6.0096,49.2218],[5.9978,49.212],[6.0002,49.2091],[5.9956,49.2072],[5.9876,49.2096],[5.984,49.2073],[5.9883,49.2015],[5.9809,49.2015],[5.9823,49.1955],[5.9786,49.195],[5.9815,49.193],[5.9814,49.1868],[5.9868,49.1841],[6.0066,49.1836],[6.0073,49.1771],[6.0132,49.1778],[6.0166,49.172],[6.0328,49.1655],[6.0224,49.1641],[6.0099,49.1529],[5.9891,49.1549],[5.9967,49.1488],[5.9814,49.1444],[5.9858,49.136],[5.9973,49.1347],[5.9935,49.1282],[5.9871,49.1283],[6.0034,49.1158],[6.0045,49.112],[5.9974,49.1078],[5.9316,49.1091],[5.9248,49.0919],[5.9332,49.0864],[5.9406,49.0863],[5.9388,49.0852],[5.9433,49.0793],[5.9339,49.0753],[5.9355,49.0696],[5.9508,49.0648],[5.9582,49.047],[5.9674,49.0471],[5.9711,49.041],[5.9873,49.0436],[6.0054,49.0344],[6.0147,49.0371],[6.0224,49.0218],[6.0333,49.0153],[6.0451,49.0135],[6.0424,49.0038],[6.0467,48.9948],[6.0414,48.9924],[6.0452,48.9884],[6.0449,48.9831],[6.039,48.9835],[6.0295,48.9905],[6.0317,48.9843],[6.0458,48.9767],[6.0738,48.9808],[6.0694,48.9721],[6.0813,48.9631],[6.1048,48.9697],[6.1164,48.9682],[6.1134,48.9634],[6.12,48.9608],[6.1182,48.9584],[6.126,48.9567],[6.1232,48.9494],[6.1294,48.9494],[6.1298,48.9462],[6.1249,48.9391],[6.1322,48.9347],[6.1496,48.9332],[6.1499,48.9393],[6.1573,48.9437],[6.1674,48.9418],[6.1715,48.9442],[6.1738,48.9431],[6.169,48.9385],[6.1766,48.9348],[6.2058,48.9396],[6.2224,48.9391],[6.2257,48.9369],[6.2241,48.9272],[6.2351,48.9295],[6.2366,48.9249],[6.2417,48.9236],[6.2524,48.9271],[6.2552,48.9312],[6.2712,48.9333],[6.275,48.9284],[6.2878,48.9277],[6.2884,48.9163],[6.3112,48.9211],[6.3138,48.9188],[6.3096,48.9119],[6.3267,48.9073],[6.3284,48.9001],[6.3269,48.8966],[6.3091,48.8922],[6.298,48.8811],[6.31,48.878],[6.3076,48.8762],[6.311,48.8731],[6.3117,48.8638],[6.3076,48.8623],[6.298,48.8669],[6.2954,48.859],[6.2992,48.8588],[6.2994,48.8517],[6.2897,48.8509],[6.2842,48.8464],[6.3009,48.8405],[6.3064,48.8332],[6.3207,48.8378],[6.3389,48.8341],[6.338,48.8268],[6.3279,48.8252],[6.317,48.8307],[6.3121,48.8256],[6.3038,48.8272],[6.3011,48.8242],[6.307,48.8212],[6.333,48.8227],[6.3326,48.8146],[6.338,48.8119],[6.3545,48.8128],[6.3545,48.8085],[6.3456,48.804],[6.3556,48.7947],[6.3548,48.7846],[6.3579,48.7791],[6.3706,48.7846],[6.3904,48.7799],[6.396,48.7747],[6.4319,48.7883],[6.4443,48.7786],[6.4521,48.78],[6.4536,48.7663],[6.4598,48.7657],[6.4654,48.7698],[6.4659,48.7667],[6.4723,48.7653],[6.4858,48.7669],[6.5119,48.7544],[6.505,48.7525],[6.5051,48.7473],[6.5119,48.749],[6.5144,48.7537],[6.5347,48.7489],[6.5402,48.7539],[6.5622,48.7563],[6.5645,48.7494],[6.5743,48.7394],[6.5948,48.7292],[6.599,48.7157],[6.6054,48.7171],[6.6273,48.7126],[6.6386,48.7011],[6.646,48.7058],[6.6588,48.708],[6.6646,48.7035],[6.6764,48.6889],[6.6698,48.6866],[6.6712,48.6741],[6.6665,48.6712],[6.6669,48.6679],[6.6773,48.6732],[6.6783,48.6783],[6.6858,48.6842],[6.6944,48.6796],[6.6946,48.677],[6.6904,48.6758],[6.6923,48.6728],[6.6996,48.6714],[6.704,48.6747],[6.7156,48.6675],[6.7211,48.67],[6.7261,48.6644],[6.7338,48.6631],[6.7404,48.6687],[6.7502,48.6664],[6.7599,48.6698],[6.7616,48.6675],[6.7573,48.6638],[6.764,48.6521],[6.778,48.6538],[6.7741,48.6479],[6.7825,48.6427],[6.8105,48.6474],[6.8366,48.6431],[6.844,48.6261],[6.854,48.6214],[6.8666,48.6205],[6.893,48.6251],[6.8973,48.6217],[6.9102,48.6203],[6.9182,48.6248],[6.9197,48.6338],[6.93,48.6356],[6.9346,48.6327],[6.9371,48.6242],[6.945,48.6188],[6.9397,48.6151],[6.9509,48.6109],[6.9608,48.6083],[6.9858,48.613],[6.9997,48.608],[7.0098,48.6117],[7.0172,48.6078],[7.0167,48.604],[6.993,48.5965],[6.9954,48.5944],[6.9933,48.5934],[7.0095,48.5883],[7.0192,48.58],[7.0342,48.5804],[7.0357,48.5742],[7.0429,48.5717],[7.0441,48.5621],[7.0533,48.5581],[7.0539,48.5519],[7.0839,48.5453],[7.0836,48.5413],[7.0563,48.539],[7.0794,48.5364],[7.0645,48.5234],[7.0709,48.5223],[7.0807,48.5125],[7.0833,48.5159],[7.0967,48.5152],[7.1022,48.5187],[7.1102,48.514],[7.1232,48.5136],[7.094,48.5129],[7.0652,48.4991],[7.0236,48.4909],[7.0064,48.481],[6.9798,48.4785],[6.9514,48.4621],[6.951,48.4582],[6.9316,48.4456],[6.9302,48.4417],[6.9219,48.4394],[6.8915,48.4178],[6.8779,48.4169],[6.8784,48.4199],[6.871,48.4201],[6.8646,48.4367],[6.855,48.4329],[6.8494,48.424],[6.8283,48.4166],[6.8228,48.4049],[6.8138,48.3963],[6.794,48.4034],[6.7824,48.3918],[6.789,48.4025],[6.767,48.3991],[6.761,48.4062],[6.7648,48.4119],[6.7393,48.4118],[6.7363,48.4169],[6.7221,48.4162],[6.7141,48.4229],[6.6995,48.4131],[6.6694,48.4261],[6.6451,48.4274],[6.6483,48.4339],[6.6428,48.4449],[6.636,48.4489],[6.6388,48.4639],[6.6354,48.4705],[6.6237,48.4731],[6.606,48.4663],[6.5975,48.467],[6.5954,48.4628],[6.585,48.4605],[6.5742,48.4427],[6.5672,48.4409],[6.5675,48.4331],[6.5739,48.4332],[6.5839,48.4172],[6.5754,48.4143],[6.5671,48.4208],[6.5337,48.4314],[6.5008,48.4142],[6.4914,48.4173],[6.471,48.4092],[6.46,48.4132],[6.4573,48.4175],[6.4355,48.4128],[6.4224,48.4073],[6.4117,48.3924],[6.4041,48.3906],[6.4,48.3962],[6.3888,48.3909],[6.3843,48.3947],[6.3929,48.4087],[6.3834,48.4066],[6.3837,48.4102],[6.3785,48.4126],[6.3812,48.415],[6.354,48.4039],[6.3313,48.4048],[6.3077,48.4117],[6.3018,48.4245],[6.3044,48.4261],[6.298,48.4345],[6.2916,48.428],[6.2828,48.43],[6.2807,48.4234],[6.2703,48.4261],[6.2604,48.4064],[6.2444,48.4053],[6.2333,48.3971],[6.2321,48.4002],[6.2175,48.4016],[6.191,48.3954],[6.1784,48.3976],[6.1847,48.4083],[6.182,48.412],[6.1768,48.4086],[6.1784,48.4067],[6.1736,48.4055],[6.1501,48.4095],[6.1471,48.4042],[6.1507,48.4032],[6.1513,48.3965],[6.1473,48.3946],[6.1535,48.3873],[6.15,48.3834],[6.1524,48.381],[6.1401,48.3725],[6.1418,48.3702],[6.1361,48.3651],[6.1316,48.3629],[6.1251,48.3673],[6.117,48.3538],[6.103,48.3547],[6.0973,48.3579],[6.0978,48.3617],[6.0929,48.3612],[6.0938,48.3638],[6.0983,48.3638],[6.0989,48.369],[6.0922,48.3743],[6.0904,48.3826],[6.0861,48.3828],[6.0691,48.3753],[6.0776,48.3749],[6.08,48.3672],[6.0795,48.3633],[6.0715,48.3598],[6.0599,48.3605],[6.051,48.3661],[6.043,48.3604],[6.0392,48.3599],[6.0392,48.3631],[6.0246,48.3569],[6.0205,48.3614],[6.0136,48.3598],[6.0036,48.3629],[6.0055,48.3582],[6.0015,48.3605],[5.9804,48.349],[5.9718,48.3528],[5.9592,48.3504],[5.9535,48.3579],[5.9565,48.3673],[5.9526,48.366],[5.9492,48.369],[5.9538,48.3738],[5.9447,48.3758],[5.9549,48.3873],[5.9507,48.3954],[5.9338,48.4034],[5.9316,48.3987],[5.9349,48.3958],[5.9277,48.3937],[5.9187,48.4052],[5.9049,48.4004],[5.9119,48.4057],[5.9107,48.4162],[5.9075,48.4192],[5.9153,48.4278],[5.9205,48.4276],[5.9187,48.4246],[5.9249,48.4218],[5.9313,48.434],[5.9236,48.4363],[5.898,48.4359],[5.9091,48.4292],[5.8952,48.4053],[5.8786,48.405],[5.8736,48.4012],[5.8707,48.406],[5.8554,48.4094],[5.8593,48.4165],[5.8774,48.429],[5.885,48.4393],[5.899,48.4467],[5.8869,48.4539],[5.8869,48.4601],[5.8924,48.4644],[5.8856,48.4691],[5.9036,48.4802],[5.9043,48.4829],[5.8988,48.4854],[5.9058,48.4946],[5.8882,48.494],[5.8703,48.4996],[5.8624,48.5066],[5.8483,48.5044],[5.8461,48.5068],[5.8378,48.5048],[5.8366,48.5009],[5.8264,48.4967],[5.8108,48.4983],[5.8055,48.4927],[5.7903,48.488],[5.787,48.4829],[5.7762,48.4873],[5.7652,48.4965],[5.766,48.5046],[5.7618,48.512],[5.7614,48.5237],[5.7665,48.5356],[5.7744,48.5358],[5.7763,48.5411],[5.7464,48.552],[5.7297,48.5532],[5.7161,48.5614],[5.7137,48.5665],[5.7134,48.5806],[5.7154,48.5886],[5.7192,48.5917],[5.7449,48.5976],[5.7523,48.6065],[5.7633,48.6095],[5.7899,48.6072],[5.798,48.6133],[5.8032,48.625],[5.7928,48.6289],[5.7721,48.6203],[5.7651,48.6187],[5.7584,48.6213],[5.7609,48.6316],[5.75,48.6441],[5.7482,48.6511],[5.743,48.6527],[5.7489,48.6668],[5.745,48.6714],[5.7474,48.6771],[5.7537,48.684],[5.7577,48.6957],[5.7646,48.7011],[5.7528,48.7081],[5.7553,48.7144],[5.742,48.715],[5.7462,48.7167],[5.719,48.7329],[5.7257,48.7374],[5.714,48.7445],[5.7258,48.7527],[5.7324,48.7487],[5.7389,48.7546],[5.7419,48.7528],[5.7454,48.7592],[5.7343,48.7614],[5.7365,48.7703],[5.7677,48.7901],[5.7765,48.7901],[5.778,48.7991],[5.7624,48.7939],[5.7572,48.7998],[5.7688,48.8044],[5.7757,48.8151],[5.773,48.822],[5.78,48.8243],[5.7822,48.8323],[5.7777,48.8373],[5.7784,48.8444],[5.7735,48.8514],[5.7774,48.8548],[5.7685,48.8608],[5.7688,48.8673],[5.7644,48.8725],[5.7866,48.8782],[5.7911,48.8866],[5.7666,48.8969],[5.7568,48.909],[5.7576,48.913],[5.7477,48.9149],[5.7477,48.9173],[5.7549,48.9231],[5.7788,48.9251],[5.784,48.9289],[5.7767,48.9316],[5.7798,48.9343],[5.787,48.9327],[5.7884,48.939],[5.7953,48.9449],[5.804,48.9471],[5.8171,48.9425],[5.8338,48.9443],[5.8345,48.9507],[5.8473,48.9518],[5.8503,48.9574],[5.8475,48.9623],[5.8324,48.9696],[5.8345,48.9757],[5.82,48.9768],[5.8178,48.9801],[5.8009,48.9859],[5.8152,48.9968],[5.8167,49.0016],[5.8281,49.0062],[5.8148,49.0083],[5.8208,49.0133],[5.8202,49.0202],[5.8278,49.0245],[5.8305,49.0325],[5.8503,49.0379],[5.8542,49.0424],[5.8478,49.0441],[5.8364,49.0548],[5.8336,49.0601],[5.8361,49.0661],[5.8072,49.0609],[5.8051,49.0645],[5.8128,49.0831],[5.827,49.0899],[5.8181,49.0946],[5.8208,49.0957],[5.8162,49.1027],[5.822,49.1084],[5.8169,49.1112],[5.7838,49.1126],[5.7774,49.1116],[5.7785,49.1093],[5.7726,49.1054],[5.7566,49.1122],[5.7469,49.1246],[5.755,49.1279],[5.7534,49.1337],[5.7718,49.1398],[5.756,49.1424],[5.7601,49.1528],[5.7497,49.1536],[5.7445,49.1573],[5.7489,49.1672],[5.7553,49.1717],[5.7554,49.1792],[5.7658,49.1975],[5.7596,49.2016],[5.7314,49.1945],[5.7251,49.1957],[5.7232,49.1993],[5.7269,49.2022],[5.719,49.216],[5.7287,49.225],[5.7406,49.2301],[5.7209,49.2477],[5.7305,49.2569],[5.723,49.2643],[5.7266,49.2677],[5.7246,49.2687],[5.7477,49.2746],[5.7522,49.2799],[5.7614,49.279],[5.7636,49.2882],[5.7679,49.2907],[5.7653,49.2951],[5.7682,49.2961],[5.7663,49.3013],[5.7693,49.3034],[5.763,49.3165],[5.7478,49.3095],[5.7336,49.31],[5.7278,49.318],[5.7291,49.3216],[5.7233,49.3217],[5.7197,49.3306],[5.7376,49.3397],[5.7392,49.3543],[5.721,49.3654],[5.7127,49.3635],[5.7107,49.3659],[5.716,49.3706],[5.7082,49.3766],[5.7078,49.3841],[5.7038,49.3882],[5.6873,49.3937],[5.6951,49.3989],[5.6921,49.4022],[5.6913,49.4163],[5.6813,49.4142],[5.6751,49.4215],[5.6496,49.4282],[5.646,49.4303],[5.6466,49.4334],[5.6367,49.4336],[5.6346,49.4374],[5.6158,49.4305],[5.6172,49.4208],[5.6148,49.4257],[5.6057,49.42],[5.5989,49.4237],[5.5837,49.4179],[5.5704,49.4234],[5.5683,49.42],[5.5541,49.4191],[5.5291,49.4074],[5.5055,49.4058],[5.5,49.4088],[5.494,49.404],[5.4986,49.3997],[5.4949,49.3911],[5.4803,49.3823],[5.474,49.389],[5.4759,49.3969],[5.4655,49.3954],[5.4475,49.4024],[5.4729,49.4107],[5.476,49.4036],[5.4973,49.4078],[5.5026,49.4188],[5.5082,49.4213],[5.5026,49.4246],[5.4902,49.4221],[5.4876,49.4274],[5.4799,49.4251],[5.4716,49.4271],[5.4801,49.4324],[5.4777,49.4367],[5.4813,49.4442],[5.4874,49.4481],[5.4663,49.4495],[5.4612,49.4539],[5.4712,49.4609],[5.4653,49.463],[5.4692,49.4654],[5.4643,49.4712],[5.4695,49.4806],[5.4631,49.4819],[5.4736,49.4826],[5.483,49.4945],[5.4709,49.4972]]]]}},{"type":"Feature","properties":{"code":"55","nom":"Meuse"},"geometry":{"type":"Polygon","coordinates":[[[4.951,49.2369],[4.9614,49.2409],[4.9675,49.2493],[4.9994,49.2595],[4.9964,49.264],[5.0258,49.2742],[5.0336,49.2707],[5.0512,49.2741],[5.049,49.2853],[5.0594,49.2899],[5.0542,49.2949],[5.0398,49.2952],[5.0381,49.2972],[5.0425,49.2982],[5.0358,49.3074],[5.0255,49.3104],[5.0381,49.3162],[5.0274,49.3268],[5.0263,49.3362],[5.0556,49.3587],[5.0533,49.3657],[5.0615,49.372],[5.0849,49.3698],[5.1011,49.3781],[5.0987,49.3846],[5.1041,49.3898],[5.0858,49.3988],[5.0896,49.4007],[5.0881,49.4021],[5.0767,49.4031],[5.0915,49.4072],[5.0971,49.4145],[5.1148,49.419],[5.116,49.4218],[5.1049,49.4259],[5.1062,49.4316],[5.1003,49.4409],[5.1001,49.4444],[5.1085,49.4475],[5.1073,49.4543],[5.1112,49.4575],[5.1056,49.4613],[5.095,49.4596],[5.083,49.4704],[5.0835,49.4841],[5.0747,49.4864],[5.0673,49.4967],[5.0595,49.5006],[5.0617,49.5075],[5.0788,49.5095],[5.0855,49.5203],[5.0899,49.5211],[5.0908,49.5256],[5.0993,49.5316],[5.0977,49.534],[5.1004,49.5372],[5.0898,49.5349],[5.088,49.5449],[5.0944,49.5497],[5.0961,49.5578],[5.1084,49.5553],[5.1131,49.5606],[5.1081,49.5619],[5.1124,49.5689],[5.1102,49.5735],[5.1046,49.5759],[5.1138,49.5919],[5.1183,49.5931],[5.1443,49.5909],[5.1508,49.5857],[5.1527,49.5769],[5.159,49.5716],[5.1627,49.5625],[5.1841,49.5696],[5.1975,49.5667],[5.2085,49.5744],[5.2356,49.5692],[5.2347,49.5622],[5.2542,49.5555],[5.2585,49.5446],[5.2627,49.5418],[5.2763,49.5443],[5.2851,49.5533],[5.3118,49.5593],[5.3082,49.5628],[5.3167,49.5673],[5.3181,49.5743],[5.329,49.5798],[5.3402,49.5948],[5.3513,49.5884],[5.3663,49.5931],[5.3781,49.593],[5.3809,49.6043],[5.3935,49.6171],[5.4286,49.5959],[5.431,49.5928],[5.4293,49.5875],[5.438,49.5697],[5.4568,49.5667],[5.4472,49.5539],[5.4413,49.5521],[5.4651,49.5389],[5.4668,49.5259],[5.4472,49.5179],[5.4656,49.5087],[5.4652,49.4989],[5.483,49.4945],[5.4736,49.4826],[5.4631,49.4819],[5.4695,49.4806],[5.4643,49.4712],[5.4692,49.4654],[5.4653,49.463],[5.4712,49.4609],[5.4612,49.4539],[5.4663,49.4495],[5.4874,49.4481],[5.4813,49.4442],[5.4777,49.4367],[5.4801,49.4324],[5.4716,49.4271],[5.4799,49.4251],[5.4876,49.4274],[5.4902,49.4221],[5.5026,49.4246],[5.5082,49.4213],[5.5026,49.4188],[5.4973,49.4078],[5.476,49.4036],[5.4729,49.4107],[5.4475,49.4024],[5.4655,49.3954],[5.4759,49.3969],[5.474,49.389],[5.4803,49.3823],[5.4949,49.3911],[5.4986,49.3997],[5.494,49.404],[5.5,49.4088],[5.5055,49.4058],[5.5291,49.4074],[5.5541,49.4191],[5.5683,49.42],[5.5704,49.4234],[5.5837,49.4179],[5.5989,49.4237],[5.6057,49.42],[5.6148,49.4257],[5.6172,49.4208],[5.6158,49.4305],[5.6346,49.4374],[5.6367,49.4336],[5.6466,49.4334],[5.646,49.4303],[5.6496,49.4282],[5.6751,49.4215],[5.6813,49.4142],[5.6913,49.4163],[5.6921,49.4022],[5.6951,49.3989],[5.6873,49.3937],[5.7038,49.3882],[5.7078,49.3841],[5.7082,49.3766],[5.716,49.3706],[5.7107,49.3659],[5.7127,49.3635],[5.721,49.3654],[5.7392,49.3543],[5.7376,49.3397],[5.7197,49.3306],[5.7233,49.3217],[5.7291,49.3216],[5.7278,49.318],[5.7336,49.31],[5.7478,49.3095],[5.763,49.3165],[5.7693,49.3034],[5.7663,49.3013],[5.7682,49.2961],[5.7653,49.2951],[5.7679,49.2907],[5.7636,49.2882],[5.7614,49.279],[5.7522,49.2799],[5.7477,49.2746],[5.7246,49.2687],[5.7266,49.2677],[5.723,49.2643],[5.7305,49.2569],[5.7209,49.2477],[5.7406,49.2301],[5.7287,49.225],[5.719,49.216],[5.7269,49.2022],[5.7232,49.1993],[5.7251,49.1957],[5.7314,49.1945],[5.7596,49.2016],[5.7658,49.1975],[5.7554,49.1792],[5.7553,49.1717],[5.7489,49.1672],[5.7445,49.1573],[5.7497,49.1536],[5.7601,49.1528],[5.756,49.1424],[5.7718,49.139],[5.7534,49.1337],[5.755,49.1279],[5.7469,49.1246],[5.7485,49.121],[5.7658,49.1064],[5.7726,49.1054],[5.7785,49.1093],[5.7774,49.1116],[5.7838,49.1126],[5.8169,49.1112],[5.822,49.1084],[5.8162,49.1027],[5.8208,49.0957],[5.8181,49.0946],[5.827,49.0899],[5.8128,49.0831],[5.8051,49.0645],[5.8072,49.0609],[5.8361,49.0661],[5.8336,49.0601],[5.8364,49.0548],[5.8478,49.0441],[5.8542,49.0424],[5.8503,49.0379],[5.8305,49.0325],[5.8278,49.0245],[5.8202,49.0202],[5.8208,49.0133],[5.8148,49.0083],[5.8281,49.0062],[5.8167,49.0016],[5.8152,48.9968],[5.8009,48.9859],[5.8178,48.9801],[5.82,48.9768],[5.8345,48.9757],[5.8324,48.9696],[5.8498,48.959],[5.8473,48.9518],[5.8364,48.9519],[5.835,48.9451],[5.8296,48.9437],[5.8171,48.9425],[5.8003,48.9468],[5.7884,48.939],[5.787,48.9327],[5.7798,48.9343],[5.7767,48.9316],[5.784,48.9289],[5.7788,48.9251],[5.7549,48.9231],[5.7477,48.9173],[5.7477,48.9149],[5.7576,48.913],[5.7568,48.909],[5.7666,48.8969],[5.7911,48.8866],[5.7866,48.8782],[5.7644,48.8725],[5.7688,48.8673],[5.7685,48.8608],[5.7774,48.8548],[5.7735,48.8514],[5.7784,48.8444],[5.7777,48.8373],[5.7822,48.8323],[5.78,48.8243],[5.773,48.822],[5.7757,48.8151],[5.7688,48.8044],[5.7572,48.7998],[5.7624,48.7939],[5.778,48.7991],[5.7765,48.7901],[5.7677,48.7901],[5.7365,48.7703],[5.7343,48.7614],[5.7454,48.7592],[5.7419,48.7528],[5.7389,48.7546],[5.7324,48.7487],[5.7258,48.7527],[5.714,48.7445],[5.7257,48.7374],[5.719,48.7329],[5.7462,48.7167],[5.742,48.715],[5.7553,48.7144],[5.7528,48.7081],[5.7646,48.7011],[5.7577,48.6957],[5.7537,48.684],[5.7474,48.6771],[5.745,48.6714],[5.7489,48.6668],[5.743,48.6527],[5.7482,48.6511],[5.75,48.6441],[5.7609,48.6316],[5.7584,48.6213],[5.7651,48.6187],[5.7721,48.6203],[5.7928,48.6289],[5.8032,48.625],[5.798,48.6133],[5.7899,48.6072],[5.7633,48.6095],[5.7523,48.6065],[5.7449,48.5976],[5.7154,48.5886],[5.7132,48.5773],[5.7161,48.5614],[5.7297,48.5532],[5.7464,48.552],[5.7763,48.5411],[5.7744,48.5358],[5.7665,48.5356],[5.7614,48.5237],[5.7652,48.4965],[5.7553,48.4917],[5.749,48.4768],[5.7418,48.4743],[5.7397,48.467],[5.7132,48.4603],[5.6951,48.4635],[5.6807,48.4687],[5.6806,48.4711],[5.6557,48.4722],[5.6549,48.4685],[5.6422,48.4724],[5.6377,48.4693],[5.6532,48.4588],[5.6483,48.4545],[5.6305,48.4513],[5.6183,48.4424],[5.6221,48.4264],[5.6158,48.4323],[5.616,48.4397],[5.6091,48.4426],[5.589,48.4424],[5.5803,48.4388],[5.5766,48.432],[5.5678,48.4329],[5.5682,48.4396],[5.5608,48.4415],[5.5505,48.4398],[5.5428,48.4342],[5.5162,48.4309],[5.5095,48.4165],[5.5137,48.4108],[5.5019,48.4095],[5.4967,48.4153],[5.4824,48.4158],[5.4647,48.4254],[5.4508,48.4227],[5.4452,48.4251],[5.4387,48.4353],[5.4333,48.432],[5.4091,48.4447],[5.4032,48.4541],[5.406,48.4654],[5.3977,48.4738],[5.3814,48.4711],[5.3677,48.477],[5.358,48.4776],[5.347,48.4838],[5.3449,48.4906],[5.3285,48.503],[5.3275,48.5094],[5.317,48.5084],[5.3056,48.5159],[5.2962,48.5084],[5.2892,48.5105],[5.2862,48.5155],[5.2711,48.5136],[5.2629,48.52],[5.2392,48.5257],[5.2274,48.532],[5.2219,48.5265],[5.2123,48.5288],[5.2065,48.5361],[5.2084,48.5386],[5.1951,48.5377],[5.1968,48.5467],[5.1731,48.5563],[5.1672,48.565],[5.1463,48.5603],[5.127,48.5765],[5.1253,48.5821],[5.1179,48.5849],[5.1213,48.5928],[5.1194,48.5957],[5.0957,48.5929],[5.0709,48.5957],[5.0638,48.6108],[5.0596,48.6125],[5.0567,48.6323],[5.052,48.6333],[5.0329,48.6136],[5.0141,48.6102],[4.9993,48.6148],[4.9947,48.6218],[4.9988,48.6237],[4.9963,48.6256],[5.0002,48.6268],[4.9978,48.6279],[5.0062,48.6335],[4.9947,48.6462],[4.9928,48.6583],[5.0111,48.6678],[5.0086,48.669],[5.0074,48.6801],[4.9884,48.6844],[4.9912,48.6868],[4.9909,48.6932],[4.9991,48.6932],[5.0064,48.6991],[4.9973,48.7096],[5.0018,48.7113],[5.0118,48.7067],[5.016,48.7095],[5.0114,48.7179],[5.0046,48.7197],[5.0097,48.7294],[5.0058,48.7353],[5.0092,48.7414],[4.9901,48.7418],[4.9814,48.7456],[4.9782,48.7532],[4.9723,48.7576],[4.965,48.7586],[4.9568,48.7673],[4.9502,48.7688],[4.9351,48.7832],[4.9378,48.7865],[4.9331,48.7914],[4.9207,48.7906],[4.9215,48.7927],[4.9125,48.7946],[4.8952,48.7961],[4.8886,48.8006],[4.8968,48.8088],[4.8889,48.8169],[4.9146,48.8351],[4.937,48.8425],[4.9374,48.8481],[4.928,48.85],[4.9304,48.856],[4.9246,48.8562],[4.9214,48.8606],[4.9253,48.864],[4.9117,48.8687],[4.9192,48.8772],[4.9202,48.8854],[4.9247,48.8914],[4.9124,48.8982],[4.9188,48.9056],[4.9335,48.9126],[4.9326,48.9153],[4.9375,48.9177],[4.9362,48.9221],[4.9507,48.9309],[4.9593,48.9259],[4.9875,48.9321],[5.0003,48.9383],[5.0141,48.9374],[5.0141,48.9456],[5.0217,48.9468],[5.0226,48.9511],[5.0309,48.9542],[5.0321,48.9644],[5.0395,48.9739],[5.0283,48.9796],[5.0172,48.9776],[5.0162,48.9815],[5.0077,48.9788],[5.0046,48.9836],[4.9938,48.9842],[5.0023,48.987],[5.0014,48.9903],[5.0047,48.993],[5.018,48.9959],[5.0346,48.9935],[5.0314,49.0061],[5.0388,49.0107],[5.0366,49.0176],[5.0397,49.0194],[5.0354,49.0192],[5.0365,49.0238],[5.0102,49.0351],[4.9654,49.0214],[5.0035,49.0533],[5.0005,49.055],[5.0057,49.0599],[4.9965,49.0882],[4.9966,49.1066],[4.9897,49.118],[4.9714,49.1368],[4.9641,49.1558],[4.9519,49.1744],[4.9398,49.1851],[4.9602,49.1969],[4.9785,49.1999],[4.9934,49.2099],[4.978,49.2189],[4.9708,49.2361],[4.951,49.2369]],[[5.4524,49.4124],[5.4515,49.4068],[5.4709,49.4128],[5.4715,49.4199],[5.4524,49.4124]],[[5.426,49.4861],[5.4407,49.487],[5.4555,49.4809],[5.4602,49.488],[5.471,49.4869],[5.442,49.5036],[5.4343,49.4971],[5.4348,49.4905],[5.426,49.4861]]]}},{"type":"Feature","properties":{"code":"57","nom":"Moselle"},"geometry":{"type":"Polygon","coordinates":[[[7.6353,49.0542],[7.64,49.0491],[7.6379,49.0461],[7.6273,49.0344],[7.6197,49.0317],[7.6064,49.02],[7.6063,49.0165],[7.6116,49.0124],[7.5876,48.9897],[7.5923,48.9848],[7.5799,48.9693],[7.5845,48.9668],[7.5784,48.9574],[7.5688,48.9549],[7.5517,48.9422],[7.5549,48.9397],[7.5527,48.9369],[7.5561,48.9358],[7.5363,48.9324],[7.5259,48.9445],[7.5197,48.9402],[7.5019,48.9442],[7.4852,48.9507],[7.4796,48.9614],[7.4553,48.963],[7.4516,48.968],[7.4302,48.9609],[7.4087,48.9594],[7.3859,48.9515],[7.3692,48.9522],[7.3589,48.9576],[7.345,48.9488],[7.3326,48.9479],[7.3269,48.9434],[7.3061,48.9535],[7.3062,48.9566],[7.2902,48.9565],[7.2931,48.9734],[7.2747,48.976],[7.2392,48.9878],[7.2093,48.9801],[7.1943,48.9952],[7.1837,48.9948],[7.1838,49.001],[7.1742,49.0064],[7.1624,49.0038],[7.1613,49.006],[7.1256,49.0063],[7.128,49.0132],[7.1217,49.0187],[7.1217,49.0298],[7.1134,49.0325],[7.1195,49.0372],[7.1084,49.0427],[7.1063,49.0557],[7.1019,49.0591],[7.1017,49.0637],[7.1193,49.0684],[7.1125,49.0723],[7.1044,49.0719],[7.0993,49.0779],[7.0914,49.0709],[7.0836,49.0687],[7.0743,49.073],[7.0677,49.065],[7.0787,49.0504],[7.0523,49.0283],[7.054,49.0241],[7.0474,49.0146],[7.0545,49.0099],[7.0469,49.0046],[7.0471,49.0003],[7.037,48.9962],[7.0382,48.9928],[7.0306,48.9871],[7.0358,48.9782],[7.0413,48.9773],[7.0357,48.9765],[7.027,48.969],[7.0322,48.956],[6.9892,48.9599],[6.9863,48.9472],[6.9774,48.939],[6.9798,48.9348],[6.9711,48.928],[6.9602,48.9252],[6.9444,48.9345],[6.9404,48.9239],[6.9555,48.9223],[6.9541,48.9193],[6.9584,48.9176],[6.9646,48.9045],[6.9547,48.8939],[6.9755,48.8901],[6.9889,48.8912],[7.0262,48.8804],[7.0332,48.8747],[7.0484,48.8737],[7.0465,48.8678],[7.0514,48.8661],[7.0505,48.8589],[7.0806,48.8642],[7.0957,48.8621],[7.0996,48.8551],[7.0918,48.8495],[7.0778,48.8478],[7.0781,48.8453],[7.0671,48.849],[7.0515,48.8466],[7.0545,48.8327],[7.0472,48.8201],[7.052,48.8152],[7.0705,48.8154],[7.0881,48.8107],[7.0891,48.8068],[7.0672,48.7995],[7.0679,48.7931],[7.0778,48.7856],[7.0861,48.7921],[7.1268,48.8011],[7.1222,48.8056],[7.1245,48.8125],[7.1476,48.8219],[7.1411,48.8344],[7.1451,48.8393],[7.1427,48.8409],[7.1489,48.8446],[7.1745,48.8418],[7.1729,48.8464],[7.1859,48.8495],[7.1959,48.8404],[7.1873,48.8362],[7.1871,48.8334],[7.1967,48.8283],[7.2091,48.8276],[7.2166,48.8203],[7.22,48.8191],[7.2231,48.8222],[7.2177,48.8281],[7.2225,48.8296],[7.2455,48.8168],[7.2613,48.82],[7.2452,48.81],[7.2591,48.8038],[7.262,48.7985],[7.2705,48.8025],[7.2876,48.7977],[7.2912,48.794],[7.2907,48.7856],[7.2969,48.7827],[7.3064,48.7691],[7.3133,48.7672],[7.3089,48.7617],[7.293,48.753],[7.2869,48.7313],[7.2733,48.7163],[7.2666,48.7142],[7.2655,48.7015],[7.2602,48.6943],[7.2469,48.6951],[7.2425,48.6915],[7.2475,48.6881],[7.2482,48.6825],[7.2615,48.6722],[7.2646,48.6627],[7.3044,48.6602],[7.2938,48.6472],[7.2829,48.6425],[7.2811,48.6366],[7.2758,48.6331],[7.2619,48.6318],[7.2797,48.6282],[7.2759,48.6201],[7.27,48.6183],[7.2708,48.6125],[7.2556,48.5999],[7.2565,48.5964],[7.2651,48.5917],[7.2485,48.5825],[7.2183,48.5526],[7.2014,48.5527],[7.1925,48.5488],[7.1871,48.5373],[7.1719,48.5324],[7.1679,48.5276],[7.1511,48.5317],[7.1483,48.527],[7.1351,48.5281],[7.1276,48.5313],[7.1242,48.5364],[7.1144,48.5374],[7.0921,48.529],[7.0794,48.5364],[7.0598,48.5371],[7.0563,48.539],[7.0836,48.5413],[7.0839,48.5453],[7.0539,48.5519],[7.0533,48.5581],[7.0441,48.5621],[7.0429,48.5717],[7.0357,48.5742],[7.0342,48.5804],[7.0192,48.58],[7.0095,48.5883],[6.9933,48.5934],[6.9954,48.5944],[6.993,48.5965],[7.0167,48.604],[7.0172,48.6078],[7.0098,48.6117],[6.9997,48.608],[6.9858,48.613],[6.9608,48.6083],[6.9509,48.6109],[6.9397,48.6151],[6.945,48.6188],[6.9371,48.6242],[6.9346,48.6327],[6.93,48.6356],[6.9197,48.6338],[6.9182,48.6248],[6.9102,48.6203],[6.8973,48.6217],[6.893,48.6251],[6.8666,48.6205],[6.854,48.6214],[6.844,48.6261],[6.8366,48.6431],[6.8105,48.6474],[6.7825,48.6427],[6.7741,48.6479],[6.778,48.6538],[6.764,48.6521],[6.7573,48.6638],[6.7616,48.6675],[6.7599,48.6698],[6.7502,48.6664],[6.7404,48.6687],[6.7338,48.6631],[6.7261,48.6644],[6.7211,48.67],[6.7156,48.6675],[6.704,48.6747],[6.6996,48.6714],[6.6923,48.6728],[6.6904,48.6758],[6.6946,48.677],[6.6944,48.6796],[6.6858,48.6842],[6.6783,48.6783],[6.6773,48.6732],[6.6669,48.6679],[6.6665,48.6712],[6.6712,48.6741],[6.6698,48.6866],[6.6764,48.6889],[6.6646,48.7035],[6.6588,48.708],[6.646,48.7058],[6.6386,48.7011],[6.6273,48.7126],[6.6054,48.7171],[6.599,48.7157],[6.5948,48.7292],[6.5743,48.7394],[6.5645,48.7494],[6.5622,48.7563],[6.5402,48.7539],[6.5347,48.7489],[6.5144,48.7537],[6.5119,48.749],[6.5051,48.7473],[6.505,48.7525],[6.5119,48.7544],[6.4858,48.7669],[6.4723,48.7653],[6.4659,48.7667],[6.4654,48.7698],[6.4598,48.7657],[6.4536,48.7663],[6.4521,48.78],[6.4443,48.7786],[6.4319,48.7883],[6.396,48.7747],[6.3904,48.7799],[6.3706,48.7846],[6.3579,48.7791],[6.3548,48.7846],[6.3556,48.7947],[6.3456,48.804],[6.3545,48.8085],[6.3545,48.8128],[6.338,48.8119],[6.3326,48.8146],[6.333,48.8227],[6.307,48.8212],[6.3011,48.8242],[6.3038,48.8272],[6.3121,48.8256],[6.317,48.8307],[6.3279,48.8252],[6.338,48.8268],[6.3389,48.8341],[6.3207,48.8378],[6.3064,48.8332],[6.3009,48.8405],[6.2842,48.8464],[6.2897,48.8509],[6.2994,48.8517],[6.2992,48.8588],[6.2954,48.859],[6.298,48.8669],[6.3076,48.8623],[6.3117,48.8638],[6.311,48.8731],[6.3076,48.8762],[6.31,48.878],[6.298,48.8811],[6.3091,48.8922],[6.3269,48.8966],[6.3284,48.9001],[6.3267,48.9073],[6.3096,48.9119],[6.3138,48.9188],[6.3112,48.9211],[6.2884,48.9163],[6.2878,48.9277],[6.275,48.9284],[6.2712,48.9333],[6.2552,48.9312],[6.2524,48.9271],[6.2417,48.9236],[6.2366,48.9249],[6.2351,48.9295],[6.2241,48.9272],[6.2257,48.9369],[6.2224,48.9391],[6.2058,48.9396],[6.1766,48.9348],[6.169,48.9385],[6.1738,48.9431],[6.1715,48.9442],[6.1674,48.9418],[6.1573,48.9437],[6.1499,48.9393],[6.1496,48.9332],[6.1322,48.9347],[6.1249,48.9391],[6.1298,48.9462],[6.1294,48.9494],[6.1232,48.9494],[6.126,48.9567],[6.1182,48.9584],[6.12,48.9608],[6.1134,48.9634],[6.1164,48.9682],[6.1048,48.9697],[6.0813,48.9631],[6.0694,48.9721],[6.0738,48.9808],[6.0458,48.9767],[6.0317,48.9843],[6.0295,48.9905],[6.039,48.9835],[6.0449,48.9831],[6.0452,48.9884],[6.0414,48.9924],[6.0467,48.9948],[6.0424,49.0038],[6.0451,49.0135],[6.0333,49.0153],[6.0224,49.0218],[6.0147,49.0371],[6.0054,49.0344],[5.9873,49.0436],[5.9711,49.041],[5.9674,49.0471],[5.9582,49.047],[5.9508,49.0648],[5.9355,49.0696],[5.9339,49.0753],[5.9433,49.0793],[5.9388,49.0852],[5.9406,49.0863],[5.9332,49.0864],[5.9248,49.0919],[5.9316,49.1091],[5.9974,49.1078],[6.0045,49.112],[6.0034,49.1158],[5.9871,49.1283],[5.9935,49.1282],[5.9973,49.1347],[5.9858,49.136],[5.9814,49.1444],[5.9967,49.1488],[5.9891,49.1549],[6.0099,49.1529],[6.0224,49.1641],[6.0328,49.1655],[6.0166,49.172],[6.0132,49.1778],[6.0073,49.1771],[6.0066,49.1836],[5.9868,49.1841],[5.9814,49.1868],[5.9815,49.193],[5.9786,49.195],[5.9823,49.1955],[5.9809,49.2015],[5.9883,49.2015],[5.984,49.2073],[5.9876,49.2096],[5.9956,49.2072],[6.0002,49.2091],[5.9978,49.212],[6.0096,49.2218],[6.023,49.2236],[6.0193,49.2265],[6.0206,49.2294],[6.0301,49.2314],[6.0251,49.2426],[6.032,49.2512],[6.0126,49.2574],[6.0114,49.2607],[6.0052,49.2571],[6.0105,49.2664],[6.0063,49.2687],[6.0098,49.2725],[6.0001,49.2776],[6.0025,49.2974],[6.0064,49.3017],[6.0037,49.3119],[5.9971,49.3142],[5.9852,49.3052],[5.9693,49.3198],[5.9637,49.3191],[5.9498,49.3283],[5.9493,49.3338],[5.9414,49.3354],[5.9445,49.3416],[5.9784,49.3449],[5.963,49.3465],[5.9596,49.3513],[5.9618,49.356],[5.9561,49.3616],[5.9401,49.3604],[5.9352,49.3692],[5.9249,49.373],[5.9359,49.3787],[5.9327,49.3835],[5.9331,49.3961],[5.9272,49.4045],[5.9119,49.4077],[5.9201,49.4133],[5.9173,49.4158],[5.9287,49.4271],[5.9423,49.4303],[5.9309,49.4463],[5.9427,49.4514],[5.9385,49.4587],[5.9394,49.4663],[5.9317,49.4716],[5.9413,49.4757],[5.929,49.4823],[5.9296,49.4853],[5.9128,49.4818],[5.9065,49.4859],[5.897,49.4811],[5.8988,49.4835],[5.8917,49.4961],[5.9119,49.502],[5.9276,49.4982],[5.9399,49.501],[5.9519,49.494],[5.9724,49.4911],[5.9738,49.489],[5.9686,49.4865],[5.9749,49.4806],[5.9714,49.4755],[5.9742,49.4648],[5.9787,49.4612],[5.9877,49.4624],[5.9856,49.4559],[5.9823,49.4571],[5.979,49.4529],[5.9825,49.4511],[6.0009,49.4566],[6.0076,49.4517],[6.0278,49.4557],[6.0275,49.4482],[6.0422,49.4478],[6.0526,49.4641],[6.0578,49.4662],[6.0797,49.4637],[6.08,49.459],[6.0873,49.4549],[6.1008,49.4529],[6.0995,49.4675],[6.1084,49.4721],[6.1235,49.4734],[6.1279,49.4937],[6.1327,49.49],[6.1417,49.4918],[6.141,49.4864],[6.1527,49.4928],[6.1622,49.4932],[6.1538,49.5014],[6.1552,49.5038],[6.1745,49.5098],[6.1781,49.5065],[6.2147,49.5064],[6.2171,49.5099],[6.2356,49.5081],[6.2407,49.5145],[6.2464,49.509],[6.2564,49.51],[6.2648,49.504],[6.2791,49.5034],[6.2798,49.4945],[6.2896,49.4932],[6.2844,49.4915],[6.289,49.4847],[6.2982,49.4887],[6.2962,49.4802],[6.3056,49.4773],[6.3128,49.4803],[6.3338,49.4669],[6.3425,49.4692],[6.3479,49.466],[6.3529,49.4672],[6.3644,49.4595],[6.3689,49.4598],[6.3677,49.4694],[6.3752,49.4646],[6.3933,49.4643],[6.4076,49.4675],[6.4205,49.4763],[6.4281,49.4769],[6.4404,49.4667],[6.443,49.4683],[6.4559,49.463],[6.4647,49.4665],[6.487,49.4516],[6.4981,49.4507],[6.5254,49.4353],[6.5419,49.4324],[6.5561,49.421],[6.557,49.4191],[6.547,49.4171],[6.5379,49.4106],[6.5405,49.4012],[6.5518,49.3998],[6.5521,49.3945],[6.5634,49.3882],[6.5767,49.3897],[6.58,49.3855],[6.5871,49.3849],[6.5839,49.3686],[6.5951,49.3714],[6.6018,49.3665],[6.5917,49.3581],[6.588,49.3497],[6.5817,49.3561],[6.5742,49.3585],[6.5638,49.3559],[6.5658,49.3473],[6.5754,49.3418],[6.578,49.3352],[6.5858,49.3371],[6.5945,49.3314],[6.5889,49.3221],[6.6053,49.3122],[6.6157,49.3017],[6.6253,49.3028],[6.6318,49.296],[6.6504,49.2884],[6.6532,49.2811],[6.6603,49.2837],[6.6704,49.2803],[6.666,49.2767],[6.6679,49.2713],[6.6603,49.261],[6.6615,49.2573],[6.6644,49.2546],[6.6755,49.2573],[6.6898,49.2497],[6.6846,49.2423],[6.6904,49.2313],[6.6885,49.2223],[6.6959,49.215],[6.7197,49.2214],[6.7233,49.2191],[6.7315,49.2061],[6.7114,49.1885],[6.7203,49.1758],[6.7385,49.1637],[6.7846,49.1681],[6.8345,49.1515],[6.8476,49.1573],[6.8439,49.1731],[6.8587,49.1749],[6.8618,49.1794],[6.8498,49.1942],[6.8515,49.2005],[6.8354,49.2113],[6.8378,49.2133],[6.8575,49.2223],[6.8631,49.222],[6.8732,49.2145],[6.8924,49.2088],[6.9254,49.2236],[6.9379,49.2222],[6.9404,49.2164],[6.9597,49.203],[6.975,49.2098],[6.9988,49.1943],[7.0091,49.1939],[7.0107,49.1881],[7.021,49.1932],[7.0234,49.1892],[7.035,49.1906],[7.0277,49.1701],[7.0333,49.1629],[7.0317,49.1576],[7.0458,49.1391],[7.0452,49.1194],[7.0543,49.1126],[7.0661,49.1146],[7.0719,49.1247],[7.0889,49.1302],[7.0803,49.1488],[7.0833,49.1532],[7.0912,49.1518],[7.1009,49.1556],[7.1133,49.1517],[7.1041,49.1461],[7.1039,49.1389],[7.1263,49.1419],[7.136,49.1285],[7.1588,49.1208],[7.1665,49.1287],[7.177,49.1283],[7.1841,49.1315],[7.1967,49.1221],[7.198,49.1151],[7.2087,49.1247],[7.2453,49.1298],[7.2664,49.1226],[7.2817,49.1245],[7.2839,49.1236],[7.2826,49.1169],[7.2937,49.1151],[7.3042,49.1229],[7.3149,49.1381],[7.3237,49.1427],[7.3633,49.1452],[7.3614,49.1527],[7.369,49.1615],[7.3648,49.1664],[7.3661,49.1725],[7.4448,49.1842],[7.4363,49.18],[7.4415,49.1729],[7.4326,49.1659],[7.4394,49.1643],[7.4473,49.1687],[7.4595,49.1626],[7.4731,49.1687],[7.494,49.1696],[7.493,49.1607],[7.4958,49.1551],[7.5064,49.1549],[7.5057,49.1503],[7.497,49.1452],[7.4955,49.141],[7.4903,49.142],[7.4896,49.1365],[7.4967,49.1354],[7.5057,49.1225],[7.5172,49.1195],[7.5218,49.1082],[7.5299,49.102],[7.529,49.0972],[7.5382,49.0962],[7.536,49.0935],[7.5632,49.0805],[7.6,49.0833],[7.6201,49.0742],[7.6293,49.0737],[7.6329,49.0636],[7.6316,49.0552],[7.6353,49.0542]]]}},{"type":"Feature","properties":{"code":"67","nom":"Bas-Rhin"},"geometry":{"type":"Polygon","coordinates":[[[7.6353,49.0542],[7.6745,49.045],[7.6814,49.049],[7.6971,49.0498],[7.6927,49.0547],[7.6961,49.0578],[7.7049,49.0564],[7.7078,49.0528],[7.7178,49.0539],[7.7227,49.0513],[7.7318,49.0556],[7.7322,49.0444],[7.7507,49.048],[7.7582,49.0453],[7.7694,49.0477],[7.7807,49.0586],[7.7883,49.0581],[7.7946,49.0658],[7.8104,49.0614],[7.8143,49.0557],[7.8258,49.0525],[7.831,49.0473],[7.8494,49.0442],[7.8555,49.0354],[7.8663,49.0334],[7.8882,49.0486],[7.9103,49.0451],[7.9167,49.041],[7.9231,49.0443],[7.9338,49.058],[7.9406,49.0545],[7.9456,49.0555],[7.9458,49.0498],[7.9496,49.0471],[7.9668,49.0414],[7.967,49.0364],[7.9722,49.0359],[7.9747,49.027],[8.0005,49.0282],[8.0102,49.0252],[8.0126,49.0212],[8.0492,49.0142],[8.0633,49.0055],[8.0647,49.0],[8.0707,48.9959],[8.0869,48.9905],[8.1234,48.9855],[8.1395,48.9783],[8.1944,48.9774],[8.1986,48.9675],[8.2227,48.976],[8.2333,48.9667],[8.1958,48.9562],[8.1768,48.932],[8.1479,48.9038],[8.1226,48.8671],[8.1039,48.8197],[8.0891,48.8036],[8.0651,48.7898],[8.0396,48.7906],[8.0291,48.7865],[8.0228,48.7684],[8.0147,48.7612],[8.0049,48.7588],[7.9818,48.761],[7.9718,48.7576],[7.9676,48.7487],[7.9673,48.727],[7.9631,48.7214],[7.8909,48.6631],[7.8398,48.6414],[7.8309,48.6207],[7.8042,48.5923],[7.8004,48.5845],[7.8055,48.5593],[7.803,48.5361],[7.807,48.5211],[7.8052,48.5136],[7.7947,48.5021],[7.7682,48.4897],[7.763,48.4514],[7.7336,48.3987],[7.7315,48.3781],[7.745,48.3357],[7.7447,48.3278],[7.7358,48.3191],[7.7068,48.3104],[7.6934,48.3015],[7.6893,48.2933],[7.6892,48.2806],[7.6678,48.2239],[7.6435,48.2065],[7.6295,48.1834],[7.6011,48.1584],[7.6006,48.1388],[7.5971,48.1332],[7.5829,48.1265],[7.5773,48.1204],[7.5529,48.1218],[7.5194,48.1261],[7.515,48.1396],[7.5203,48.1495],[7.5109,48.1492],[7.5125,48.1523],[7.4775,48.1566],[7.4701,48.1602],[7.4716,48.1682],[7.4676,48.169],[7.4728,48.173],[7.475,48.1856],[7.4723,48.1921],[7.4769,48.2035],[7.4498,48.2116],[7.4436,48.218],[7.4042,48.2266],[7.4025,48.2317],[7.3624,48.243],[7.3536,48.2485],[7.3265,48.2441],[7.3106,48.2537],[7.3149,48.2634],[7.3202,48.2612],[7.3329,48.2727],[7.3041,48.2681],[7.2925,48.2708],[7.2905,48.2742],[7.301,48.2826],[7.2911,48.2895],[7.2905,48.2938],[7.2817,48.2968],[7.2751,48.3056],[7.2653,48.3035],[7.2566,48.3063],[7.2417,48.3024],[7.2351,48.3093],[7.1983,48.3105],[7.1967,48.3159],[7.1898,48.3188],[7.1918,48.3248],[7.1772,48.3253],[7.1809,48.3351],[7.1848,48.3362],[7.1837,48.3394],[7.1695,48.3423],[7.1535,48.3334],[7.1205,48.3334],[7.1128,48.3359],[7.1077,48.3443],[7.076,48.3526],[7.083,48.356],[7.0957,48.3708],[7.1093,48.3787],[7.1041,48.3883],[7.085,48.3979],[7.0884,48.4027],[7.0974,48.4056],[7.0923,48.4102],[7.0974,48.418],[7.0957,48.4265],[7.0996,48.4342],[7.1099,48.4397],[7.105,48.4445],[7.1069,48.4481],[7.1019,48.4514],[7.1103,48.4624],[7.1098,48.4665],[7.1187,48.4745],[7.1169,48.4849],[7.0937,48.4893],[7.0945,48.4955],[7.0909,48.4983],[7.0906,48.5037],[7.0952,48.5056],[7.0965,48.5021],[7.1001,48.5033],[7.1032,48.4998],[7.1221,48.5007],[7.1358,48.4976],[7.1302,48.4996],[7.1325,48.5022],[7.1208,48.5051],[7.1277,48.5095],[7.1232,48.5136],[7.1174,48.5133],[7.1178,48.5157],[7.1102,48.514],[7.1022,48.5187],[7.0967,48.5152],[7.0833,48.5159],[7.0807,48.5125],[7.0709,48.5223],[7.0645,48.5234],[7.0794,48.5364],[7.0921,48.529],[7.1144,48.5374],[7.1242,48.5364],[7.1276,48.5313],[7.1351,48.5281],[7.1483,48.527],[7.1511,48.5317],[7.1679,48.5276],[7.1719,48.5324],[7.1871,48.5373],[7.1925,48.5488],[7.2014,48.5527],[7.2183,48.5526],[7.2485,48.5825],[7.2651,48.5917],[7.2565,48.5964],[7.2556,48.5999],[7.2708,48.6125],[7.27,48.6183],[7.2759,48.6201],[7.2797,48.6282],[7.2619,48.6318],[7.2758,48.6331],[7.2811,48.6366],[7.2829,48.6425],[7.2938,48.6472],[7.3044,48.6602],[7.2646,48.6627],[7.2615,48.6722],[7.2482,48.6825],[7.2475,48.6881],[7.2425,48.6915],[7.2469,48.6951],[7.2602,48.6943],[7.2655,48.7015],[7.2666,48.7142],[7.2733,48.7163],[7.2869,48.7313],[7.293,48.753],[7.3089,48.7617],[7.3133,48.7672],[7.3064,48.7691],[7.2969,48.7827],[7.2907,48.7856],[7.2912,48.794],[7.2876,48.7977],[7.2705,48.8025],[7.262,48.7985],[7.2591,48.8038],[7.2452,48.81],[7.2613,48.82],[7.2455,48.8168],[7.2225,48.8296],[7.2177,48.8281],[7.2231,48.8222],[7.22,48.8191],[7.2166,48.8203],[7.2091,48.8276],[7.1967,48.8283],[7.1871,48.8334],[7.1873,48.8362],[7.1959,48.8404],[7.1859,48.8495],[7.1729,48.8464],[7.1745,48.8418],[7.1489,48.8446],[7.1427,48.8409],[7.1451,48.8393],[7.1411,48.8344],[7.1476,48.8219],[7.1245,48.8125],[7.1222,48.8056],[7.1268,48.8011],[7.0861,48.7921],[7.0778,48.7856],[7.0679,48.7931],[7.0672,48.7995],[7.0891,48.8068],[7.0881,48.8107],[7.0705,48.8154],[7.052,48.8152],[7.0472,48.8201],[7.0545,48.8327],[7.0515,48.8466],[7.0671,48.849],[7.0781,48.8453],[7.0778,48.8478],[7.0918,48.8495],[7.0996,48.8551],[7.0957,48.8621],[7.0806,48.8642],[7.0505,48.8589],[7.0514,48.8661],[7.0465,48.8678],[7.0484,48.8737],[7.0332,48.8747],[7.0262,48.8804],[6.9889,48.8912],[6.9755,48.8901],[6.9547,48.8939],[6.9646,48.9045],[6.962,48.9111],[6.9541,48.9193],[6.9555,48.9223],[6.9404,48.9239],[6.9462,48.9351],[6.9495,48.9303],[6.9602,48.9252],[6.9711,48.928],[6.9798,48.9348],[6.9774,48.939],[6.9863,48.9472],[6.9892,48.9599],[7.0322,48.956],[7.027,48.969],[7.0357,48.9765],[7.0413,48.9773],[7.0358,48.9782],[7.0306,48.9871],[7.0382,48.9928],[7.037,48.9962],[7.0471,49.0003],[7.0469,49.0046],[7.0545,49.0099],[7.0474,49.0146],[7.054,49.0241],[7.0523,49.0283],[7.0787,49.0504],[7.0677,49.065],[7.0759,49.074],[7.0836,49.0687],[7.0914,49.0709],[7.0993,49.0779],[7.1044,49.0719],[7.1125,49.0723],[7.1193,49.0684],[7.1017,49.0637],[7.1019,49.0591],[7.1063,49.0557],[7.1084,49.0427],[7.1195,49.0372],[7.1134,49.0325],[7.1217,49.0298],[7.1217,49.0187],[7.128,49.0132],[7.1256,49.0063],[7.1613,49.006],[7.1624,49.0038],[7.1742,49.0064],[7.1838,49.001],[7.1837,48.9948],[7.1943,48.9952],[7.2093,48.9801],[7.2392,48.9878],[7.2747,48.976],[7.2931,48.9734],[7.2902,48.9565],[7.3062,48.9566],[7.3061,48.9535],[7.3269,48.9434],[7.3326,48.9479],[7.345,48.9488],[7.3589,48.9576],[7.3692,48.9522],[7.3859,48.9515],[7.4087,48.9594],[7.4302,48.9609],[7.4516,48.968],[7.4553,48.963],[7.4796,48.9614],[7.4852,48.9507],[7.5019,48.9442],[7.5197,48.9402],[7.5259,48.9445],[7.5363,48.9324],[7.5561,48.9358],[7.5527,48.9369],[7.5549,48.9397],[7.5517,48.9422],[7.5688,48.9549],[7.5784,48.9574],[7.5845,48.9668],[7.5799,48.9693],[7.5923,48.9848],[7.5876,48.9897],[7.6116,49.0124],[7.6063,49.0165],[7.6064,49.02],[7.6197,49.0317],[7.6273,49.0344],[7.6379,49.0461],[7.64,49.0491],[7.6353,49.0542]]]}},{"type":"Feature","properties":{"code":"68","nom":"Haut-Rhin"},"geometry":{"type":"Polygon","coordinates":[[[7.1983,48.3105],[7.2351,48.3093],[7.2417,48.3024],[7.2566,48.3063],[7.2653,48.3035],[7.2751,48.3056],[7.2817,48.2968],[7.2905,48.2938],[7.2911,48.2895],[7.301,48.2826],[7.2905,48.2742],[7.2925,48.2708],[7.3041,48.2681],[7.3329,48.2727],[7.3202,48.2612],[7.3149,48.2634],[7.3106,48.2537],[7.3265,48.2441],[7.3536,48.2485],[7.3624,48.243],[7.4025,48.2317],[7.4042,48.2266],[7.4436,48.218],[7.4498,48.2116],[7.4769,48.2035],[7.4723,48.1921],[7.475,48.1856],[7.4728,48.173],[7.4676,48.169],[7.4716,48.1682],[7.4701,48.1602],[7.4775,48.1566],[7.5125,48.1523],[7.5109,48.1492],[7.5203,48.1495],[7.515,48.1396],[7.5194,48.1261],[7.5773,48.1204],[7.5797,48.1023],[7.5692,48.0814],[7.5738,48.053],[7.5687,48.0341],[7.6088,48.0003],[7.622,47.9757],[7.6211,47.9692],[7.6088,47.9532],[7.5833,47.9311],[7.5805,47.924],[7.5819,47.8965],[7.5567,47.8799],[7.5559,47.868],[7.5636,47.8521],[7.5631,47.8438],[7.5497,47.8226],[7.5296,47.7789],[7.5322,47.7681],[7.5481,47.7396],[7.5477,47.7299],[7.5403,47.7184],[7.5137,47.7028],[7.5118,47.697],[7.5195,47.6847],[7.5211,47.6637],[7.5384,47.6488],[7.5633,47.6357],[7.5703,47.6271],[7.5736,47.6167],[7.591,47.6047],[7.593,47.5986],[7.5849,47.5756],[7.5671,47.5776],[7.5567,47.5723],[7.5591,47.5692],[7.5572,47.565],[7.5,47.5398],[7.498,47.536],[7.5014,47.5287],[7.5111,47.5291],[7.5193,47.5346],[7.5274,47.5326],[7.5312,47.5266],[7.5229,47.5142],[7.5176,47.517],[7.5035,47.5146],[7.4978,47.5212],[7.4988,47.5167],[7.5097,47.5084],[7.511,47.4967],[7.5023,47.4938],[7.5025,47.4908],[7.4939,47.4883],[7.4869,47.4817],[7.4709,47.4804],[7.4621,47.4891],[7.4509,47.4901],[7.4348,47.498],[7.4318,47.4961],[7.4211,47.4804],[7.4361,47.4806],[7.4556,47.473],[7.4557,47.4705],[7.4454,47.4617],[7.4301,47.4593],[7.4284,47.4533],[7.421,47.4461],[7.4029,47.4382],[7.4034,47.4355],[7.3856,47.4316],[7.3557,47.4338],[7.3307,47.4416],[7.3208,47.4384],[7.3029,47.4387],[7.2939,47.4335],[7.2835,47.4348],[7.2695,47.4267],[7.2462,47.4202],[7.2454,47.4263],[7.2389,47.4282],[7.2387,47.4337],[7.2328,47.4388],[7.1997,47.435],[7.1708,47.443],[7.1782,47.4585],[7.1772,47.4676],[7.1914,47.4888],[7.2023,47.4917],[7.2011,47.4939],[7.1617,47.49],[7.1522,47.4963],[7.1303,47.503],[7.136,47.507],[7.1435,47.5246],[7.1398,47.5261],[7.1336,47.539],[7.1188,47.5476],[7.1069,47.5505],[7.1084,47.563],[7.1055,47.5689],[7.0942,47.5736],[7.086,47.587],[7.0863,47.5926],[7.0811,47.5961],[7.074,47.5989],[7.0702,47.5963],[7.0704,47.6007],[7.0659,47.6013],[7.0544,47.5986],[7.0398,47.6011],[7.0339,47.5941],[7.0196,47.5885],[7.0157,47.5918],[7.0216,47.5938],[7.0193,47.5961],[7.0059,47.6024],[7.0105,47.605],[7.0061,47.6129],[7.0059,47.6289],[7.0113,47.6304],[7.0142,47.6257],[7.0169,47.6272],[7.0126,47.6314],[7.0159,47.636],[7.0121,47.6393],[7.0192,47.6412],[7.0176,47.6499],[7.0392,47.6506],[7.0342,47.6611],[7.0463,47.6715],[7.0379,47.6745],[7.0389,47.6785],[7.048,47.6841],[7.0401,47.6857],[7.0364,47.6914],[7.0376,47.6947],[7.0332,47.6953],[7.0337,47.6996],[7.0265,47.701],[7.0374,47.7216],[7.0216,47.7333],[7.016,47.7432],[7.013,47.7413],[6.9814,47.7516],[6.9723,47.7515],[6.9435,47.7665],[6.9404,47.7716],[6.9268,47.7695],[6.914,47.7772],[6.8926,47.7775],[6.8801,47.7825],[6.867,47.7833],[6.8624,47.7864],[6.8601,47.7944],[6.8544,47.7956],[6.8484,47.8019],[6.8502,47.8071],[6.8427,47.8122],[6.841,47.819],[6.8501,47.8245],[6.8574,47.8232],[6.8676,47.8295],[6.8961,47.833],[6.9029,47.843],[6.92,47.8503],[6.9181,47.8573],[6.9065,47.8651],[6.9084,47.872],[6.9047,47.8796],[6.9097,47.8816],[6.8978,47.8843],[6.8969,47.8908],[6.9185,47.8984],[6.917,47.9021],[6.9288,47.9099],[6.9259,47.9173],[6.9173,47.9164],[6.9132,47.9194],[6.9257,47.9298],[6.9194,47.9443],[6.9247,47.9509],[6.9235,47.9545],[6.9307,47.9719],[6.9391,47.9753],[6.9437,47.9809],[6.9438,47.9995],[6.9529,48.0029],[6.9608,48.0001],[6.9755,48.0092],[6.9826,48.0098],[6.9902,48.0194],[7.0013,48.0218],[7.0122,48.0317],[7.0091,48.0328],[7.0156,48.038],[7.0098,48.0429],[7.0187,48.0551],[7.0234,48.0563],[7.0229,48.0636],[7.0299,48.066],[7.0298,48.0719],[7.0374,48.0781],[7.0517,48.0826],[7.0713,48.1076],[7.0767,48.1085],[7.0839,48.1222],[7.0842,48.1292],[7.0698,48.1295],[7.058,48.1377],[7.0605,48.1446],[7.0649,48.1454],[7.079,48.1639],[7.0776,48.1709],[7.0832,48.1725],[7.0818,48.1754],[7.0858,48.184],[7.0998,48.1891],[7.1084,48.1976],[7.1056,48.2005],[7.1177,48.2082],[7.1154,48.2121],[7.1232,48.2165],[7.1307,48.2367],[7.134,48.2377],[7.133,48.2475],[7.139,48.2503],[7.1477,48.2644],[7.1595,48.2687],[7.1594,48.2752],[7.1635,48.2806],[7.1767,48.289],[7.1719,48.2935],[7.1724,48.2975],[7.1936,48.302],[7.1983,48.3105]]]}},{"type":"Feature","properties":{"code":"88","nom":"Vosges"},"geometry":{"type":"Polygon","coordinates":[[[5.4701,48.4209],[5.4862,48.4146],[5.4967,48.4153],[5.5019,48.4095],[5.512,48.4101],[5.5134,48.4125],[5.5095,48.4165],[5.5162,48.4309],[5.5428,48.4342],[5.5505,48.4398],[5.5608,48.4415],[5.5682,48.4396],[5.5678,48.4329],[5.5766,48.432],[5.5803,48.4388],[5.5938,48.4428],[5.6151,48.4405],[5.6158,48.4323],[5.6221,48.4264],[5.6183,48.4424],[5.6305,48.4513],[5.6483,48.4545],[5.6532,48.4588],[5.6377,48.4693],[5.6422,48.4724],[5.6549,48.4685],[5.6557,48.4722],[5.6806,48.4711],[5.6807,48.4687],[5.6951,48.4635],[5.7192,48.4601],[5.7386,48.4661],[5.7418,48.4743],[5.749,48.4768],[5.7553,48.4917],[5.7652,48.4965],[5.7762,48.4873],[5.787,48.4829],[5.7903,48.488],[5.8055,48.4927],[5.8108,48.4983],[5.823,48.4961],[5.8366,48.5009],[5.8416,48.5061],[5.8624,48.5066],[5.8703,48.4996],[5.8882,48.494],[5.9058,48.4946],[5.8988,48.4854],[5.9043,48.4829],[5.9036,48.4802],[5.8856,48.4691],[5.8924,48.4644],[5.8869,48.4601],[5.8869,48.4539],[5.899,48.4467],[5.885,48.4393],[5.8774,48.429],[5.8593,48.4165],[5.8554,48.4094],[5.8707,48.406],[5.8736,48.4012],[5.8786,48.405],[5.8952,48.4053],[5.9091,48.4292],[5.898,48.4359],[5.9236,48.4363],[5.9313,48.434],[5.9249,48.4218],[5.9187,48.4246],[5.9205,48.4276],[5.9153,48.4278],[5.9075,48.4192],[5.9107,48.4162],[5.9119,48.4057],[5.9049,48.4004],[5.9187,48.4052],[5.9277,48.3937],[5.9349,48.3958],[5.9316,48.3987],[5.9338,48.4034],[5.9507,48.3954],[5.9549,48.3873],[5.9447,48.3758],[5.9538,48.3738],[5.9492,48.369],[5.9526,48.366],[5.9565,48.3673],[5.9535,48.3579],[5.9592,48.3504],[5.9718,48.3528],[5.9804,48.349],[6.0015,48.3605],[6.0055,48.3582],[6.0036,48.3629],[6.0136,48.3598],[6.0205,48.3614],[6.0246,48.3569],[6.0392,48.3631],[6.0392,48.3599],[6.043,48.3604],[6.051,48.3661],[6.0599,48.3605],[6.0715,48.3598],[6.0795,48.3633],[6.08,48.3672],[6.0776,48.3749],[6.0691,48.3753],[6.0861,48.3828],[6.0904,48.3826],[6.0922,48.3743],[6.0989,48.369],[6.0983,48.3638],[6.0938,48.3638],[6.0929,48.3612],[6.0978,48.3617],[6.0973,48.3579],[6.103,48.3547],[6.117,48.3538],[6.1251,48.3673],[6.1316,48.3629],[6.1361,48.3651],[6.1418,48.3702],[6.1401,48.3725],[6.1524,48.381],[6.15,48.3834],[6.1535,48.3873],[6.1473,48.3946],[6.1513,48.3965],[6.1507,48.4032],[6.1471,48.4042],[6.1501,48.4095],[6.1736,48.4055],[6.1784,48.4067],[6.1768,48.4086],[6.182,48.412],[6.1847,48.4083],[6.1784,48.3976],[6.191,48.3954],[6.2175,48.4016],[6.2321,48.4002],[6.2333,48.3971],[6.2444,48.4053],[6.2604,48.4064],[6.2703,48.4261],[6.2807,48.4234],[6.2828,48.43],[6.2916,48.428],[6.298,48.4345],[6.3044,48.4261],[6.3018,48.4245],[6.3077,48.4117],[6.3313,48.4048],[6.354,48.4039],[6.3812,48.415],[6.3785,48.4126],[6.3837,48.4102],[6.3834,48.4066],[6.3929,48.4087],[6.3843,48.3947],[6.3888,48.3909],[6.4,48.3962],[6.4041,48.3906],[6.4117,48.3924],[6.4224,48.4073],[6.4355,48.4128],[6.4573,48.4175],[6.46,48.4132],[6.471,48.4092],[6.4914,48.4173],[6.5008,48.4142],[6.5337,48.4314],[6.5671,48.4208],[6.5754,48.4143],[6.5839,48.4172],[6.5739,48.4332],[6.5675,48.4331],[6.5672,48.4409],[6.5742,48.4427],[6.585,48.4605],[6.5954,48.4628],[6.5975,48.467],[6.606,48.4663],[6.6237,48.4731],[6.6354,48.4705],[6.6388,48.4639],[6.636,48.4489],[6.6428,48.4449],[6.6483,48.4339],[6.6451,48.4274],[6.6694,48.4261],[6.6995,48.4131],[6.7141,48.4229],[6.7221,48.4162],[6.7363,48.4169],[6.7393,48.4118],[6.7648,48.4119],[6.761,48.4062],[6.767,48.3991],[6.789,48.4025],[6.7824,48.3918],[6.794,48.4034],[6.8067,48.4002],[6.8103,48.3957],[6.8228,48.4049],[6.8283,48.4166],[6.8494,48.424],[6.855,48.4329],[6.8646,48.4367],[6.871,48.4201],[6.8784,48.4199],[6.8779,48.4169],[6.8915,48.4178],[6.9219,48.4394],[6.9302,48.4417],[6.9316,48.4456],[6.951,48.4582],[6.9514,48.4621],[6.9798,48.4785],[7.0064,48.481],[7.0236,48.4909],[7.0652,48.4991],[7.094,48.5129],[7.1232,48.5136],[7.1277,48.5095],[7.1208,48.5051],[7.1325,48.5022],[7.1302,48.4996],[7.1358,48.4976],[7.1221,48.5007],[7.1032,48.4998],[7.1001,48.5033],[7.0965,48.5021],[7.0952,48.5056],[7.0906,48.5037],[7.0909,48.4983],[7.0945,48.4955],[7.0937,48.4893],[7.1169,48.4849],[7.1187,48.4745],[7.1098,48.4665],[7.1103,48.4624],[7.1019,48.4514],[7.1069,48.4481],[7.105,48.4445],[7.1099,48.4397],[7.0996,48.4342],[7.0957,48.4265],[7.0974,48.418],[7.0923,48.4102],[7.0974,48.4056],[7.0884,48.4027],[7.085,48.3979],[7.1041,48.3883],[7.1093,48.3787],[7.0957,48.3708],[7.083,48.356],[7.076,48.3526],[7.1077,48.3443],[7.1128,48.3359],[7.1205,48.3334],[7.1535,48.3334],[7.1695,48.3423],[7.1837,48.3394],[7.1848,48.3362],[7.1809,48.3351],[7.1772,48.3253],[7.1918,48.3248],[7.1898,48.3188],[7.1967,48.3159],[7.1983,48.3105],[7.1936,48.302],[7.1724,48.2975],[7.1719,48.2935],[7.1767,48.289],[7.1635,48.2806],[7.1594,48.2752],[7.1595,48.2687],[7.1477,48.2644],[7.139,48.2503],[7.133,48.2475],[7.134,48.2377],[7.1307,48.2367],[7.1232,48.2165],[7.1154,48.2121],[7.1177,48.2082],[7.1056,48.2005],[7.1084,48.1976],[7.0998,48.1891],[7.0858,48.184],[7.0818,48.1754],[7.0832,48.1725],[7.0776,48.1709],[7.079,48.1639],[7.0649,48.1454],[7.0605,48.1446],[7.058,48.1377],[7.0698,48.1295],[7.0842,48.1292],[7.0839,48.1222],[7.0767,48.1085],[7.0713,48.1076],[7.0517,48.0826],[7.0374,48.0781],[7.0298,48.0719],[7.0299,48.066],[7.0229,48.0636],[7.0234,48.0563],[7.0187,48.0551],[7.0098,48.0429],[7.0156,48.038],[7.0091,48.0328],[7.0122,48.0317],[7.0013,48.0218],[6.9902,48.0194],[6.9826,48.0098],[6.9755,48.0092],[6.9608,48.0001],[6.9529,48.0029],[6.9438,47.9995],[6.9437,47.9809],[6.9391,47.9753],[6.9307,47.9719],[6.9235,47.9545],[6.9247,47.9509],[6.9194,47.9443],[6.9257,47.9298],[6.9132,47.9194],[6.9173,47.9164],[6.9259,47.9173],[6.9288,47.9099],[6.917,47.9021],[6.9185,47.8984],[6.8969,47.8908],[6.8978,47.8843],[6.9097,47.8816],[6.9047,47.8796],[6.9084,47.872],[6.9065,47.8651],[6.9181,47.8573],[6.92,47.8503],[6.9029,47.843],[6.8961,47.833],[6.8676,47.8295],[6.8574,47.8232],[6.8393,47.8248],[6.8235,47.813],[6.7927,47.8295],[6.7884,47.8345],[6.7922,47.8422],[6.7826,47.8513],[6.7702,47.852],[6.7607,47.8583],[6.7378,47.8617],[6.7028,47.8817],[6.6464,47.9032],[6.6393,47.9103],[6.6419,47.9178],[6.6331,47.9214],[6.6274,47.9301],[6.6185,47.9314],[6.6041,47.9448],[6.5898,47.9425],[6.5634,47.9314],[6.552,47.9155],[6.5522,47.9116],[6.544,47.9085],[6.544,47.9031],[6.5032,47.8962],[6.4783,47.8854],[6.4741,47.891],[6.478,47.893],[6.4655,47.8971],[6.456,47.9068],[6.4634,47.9141],[6.4627,47.9173],[6.4492,47.9217],[6.4481,47.9261],[6.4363,47.9365],[6.4347,47.9428],[6.4084,47.9432],[6.4054,47.9531],[6.3945,47.955],[6.3889,47.9608],[6.3806,47.9585],[6.3616,47.9613],[6.3609,47.9585],[6.3453,47.9545],[6.3353,47.9558],[6.3233,47.9488],[6.2891,47.9558],[6.2773,47.9538],[6.2508,47.9391],[6.2432,47.9396],[6.2387,47.9371],[6.238,47.9328],[6.2192,47.9358],[6.2144,47.9304],[6.2052,47.932],[6.2081,47.9468],[6.1971,47.9474],[6.1974,47.9518],[6.182,47.9563],[6.168,47.9524],[6.1621,47.9568],[6.1571,47.9679],[6.1556,47.965],[6.1498,47.9659],[6.1509,47.9706],[6.1646,47.9731],[6.1645,47.9777],[6.1576,47.9845],[6.1596,47.9923],[6.1527,47.9941],[6.1561,48.0069],[6.1314,48.0241],[6.1174,48.02],[6.1092,48.0125],[6.0977,48.015],[6.0808,48.0128],[6.0728,48.0158],[6.0412,48.0044],[6.0325,47.9986],[6.0322,47.9906],[6.0249,47.9916],[6.0247,47.9871],[6.019,47.9875],[6.0182,47.9842],[6.0261,47.9815],[6.0173,47.9725],[6.019,47.9697],[6.0121,47.9719],[6.0053,47.9578],[5.9708,47.9572],[5.9689,47.9474],[5.9494,47.9355],[5.9284,47.9378],[5.9379,47.9516],[5.9595,47.9658],[5.9588,47.9705],[5.9496,47.9729],[5.9475,47.9792],[5.9442,47.98],[5.9225,47.972],[5.9174,47.9662],[5.9205,47.9566],[5.918,47.9474],[5.9001,47.9447],[5.8929,47.9371],[5.8972,47.931],[5.8847,47.926],[5.8815,47.933],[5.8697,47.9393],[5.8686,47.945],[5.8575,47.9451],[5.8496,47.9606],[5.8495,47.9651],[5.8542,47.9658],[5.8536,47.9699],[5.8466,47.9695],[5.8458,47.9757],[5.8428,47.9756],[5.84,47.965],[5.8316,47.9578],[5.8177,47.958],[5.8111,47.9552],[5.8093,47.9487],[5.8053,47.947],[5.8036,47.9497],[5.7873,47.9526],[5.784,47.962],[5.7859,47.9645],[5.7804,47.9699],[5.7785,47.978],[5.7932,47.9871],[5.7947,47.998],[5.7868,48.0023],[5.7856,48.0129],[5.7807,48.0209],[5.7764,48.0224],[5.777,48.0335],[5.7645,48.0299],[5.7644,48.0348],[5.74,48.0501],[5.7205,48.0442],[5.7213,48.0527],[5.7089,48.0654],[5.6988,48.0668],[5.6968,48.0772],[5.6884,48.0754],[5.6751,48.0819],[5.6733,48.0788],[5.6575,48.0862],[5.6532,48.084],[5.6528,48.0804],[5.6613,48.072],[5.6559,48.0691],[5.6466,48.0727],[5.6442,48.0795],[5.629,48.0844],[5.6339,48.0902],[5.6388,48.0888],[5.6374,48.0976],[5.6494,48.105],[5.6721,48.1094],[5.6676,48.1161],[5.6616,48.1152],[5.6574,48.1217],[5.6618,48.1236],[5.6625,48.1288],[5.6771,48.1367],[5.6748,48.1386],[5.6769,48.1451],[5.6851,48.1467],[5.6854,48.1506],[5.6813,48.1508],[5.6845,48.1536],[5.6868,48.1665],[5.6796,48.1793],[5.6872,48.1803],[5.7018,48.1904],[5.731,48.1897],[5.7301,48.1983],[5.7212,48.207],[5.7182,48.2145],[5.6878,48.2342],[5.6774,48.229],[5.6415,48.2418],[5.6449,48.2515],[5.6511,48.2566],[5.6538,48.2685],[5.6433,48.275],[5.6117,48.2918],[5.5889,48.2756],[5.5717,48.2925],[5.5373,48.3183],[5.5246,48.3336],[5.5253,48.3381],[5.5224,48.3409],[5.5265,48.3469],[5.5063,48.3504],[5.4978,48.3554],[5.481,48.3564],[5.4691,48.349],[5.4618,48.3521],[5.4454,48.3376],[5.4268,48.3312],[5.417,48.3427],[5.4227,48.3516],[5.4175,48.3573],[5.4185,48.3607],[5.4429,48.3794],[5.4074,48.3827],[5.3939,48.3916],[5.4196,48.395],[5.4212,48.3989],[5.4431,48.4106],[5.4466,48.4153],[5.4593,48.4162],[5.4701,48.4209]]]}}]}