{"type":"FeatureCollection","features":[{"type":"Feature","properties":{"code":"44","nom":"Grand Est"},"geometry":{"type":"Polygon","coordinates":[[[4.2332,49.9577],[4.2693,49.9653],[4.2973,49.9646],[4.3087,49.9697],[4.3229,49.9631],[4.3374,49.9621],[4.3501,49.952],[4.3711,49.9514],[4.3815,49.9542],[4.3917,49.9474],[4.4184,49.947],[4.4469,49.9375],[4.4816,49.9479],[4.5104,49.9467],[4.5192,49.9515],[4.5233,49.9504],[4.5307,49.9614],[4.5422,49.9693],[4.5643,49.9701],[4.5722,49.9745],[4.5737,49.9803],[4.5821,49.9836],[4.6332,49.9871],[4.6662,49.9967],[4.6936,49.9955],[4.685,50.007],[4.6885,50.0114],[4.6847,50.0272],[4.6966,50.0427],[4.6958,50.0489],[4.6997,50.0536],[4.6959,50.0591],[4.6863,50.0575],[4.6802,50.0665],[4.6885,50.0726],[4.693,50.0848],[4.7021,50.0955],[4.7134,50.097],[4.7156,50.1007],[4.7514,50.1117],[4.753,50.1168],[4.7478,50.1223],[4.756,50.1216],[4.7622,50.1364],[4.8058,50.1526],[4.8251,50.1691],[4.8243,50.1607],[4.8322,50.1532],[4.876,50.1539],[4.8795,50.1515],[4.8812,50.1413],[4.895,50.1404],[4.8971,50.1378],[4.8848,50.1301],[4.8784,50.1309],[4.8784,50.1272],[4.8706,50.1247],[4.8672,50.1187],[4.8737,50.1075],[4.8679,50.0967],[4.876,50.0942],[4.8721,50.0877],[4.8605,50.0927],[4.8617,50.0971],[4.8585,50.0999],[4.8509,50.1013],[4.8377,50.0929],[4.8463,50.0849],[4.8406,50.0829],[4.8429,50.0775],[4.8379,50.0671],[4.8193,50.0659],[4.8213,50.0649],[4.8188,50.0611],[4.829,50.0571],[4.8273,50.0501],[4.8318,50.0467],[4.8404,50.0463],[4.8413,50.04],[4.8194,50.0258],[4.822,50.0222],[4.817,50.0156],[4.8211,50.0117],[4.816,50.0027],[4.8189,49.9951],[4.8038,49.9826],[4.7933,49.9821],[4.7954,49.977],[4.7901,49.97],[4.7909,49.9584],[4.8302,49.9489],[4.8471,49.949],[4.859,49.9318],[4.8808,49.9223],[4.8804,49.9166],[4.89,49.9093],[4.8863,49.9056],[4.8774,49.9045],[4.8762,49.9014],[4.8852,49.9021],[4.8873,49.8987],[4.8774,49.8942],[4.8692,49.8837],[4.8708,49.8787],[4.8635,49.8745],[4.8631,49.8673],[4.8512,49.865],[4.8516,49.8537],[4.8576,49.8464],[4.8576,49.8418],[4.8673,49.8419],[4.8688,49.8231],[4.8769,49.8194],[4.8651,49.8132],[4.8627,49.8017],[4.8515,49.7936],[4.8635,49.789],[4.8708,49.7893],[4.8695,49.7934],[4.8791,49.793],[4.8873,49.788],[4.8984,49.7892],[4.9057,49.7855],[4.9217,49.7886],[4.9309,49.7869],[4.9571,49.8017],[4.9626,49.7978],[4.9689,49.8018],[4.9954,49.8006],[4.9988,49.7996],[4.998,49.7947],[5.0072,49.7877],[5.007,49.7835],[5.0136,49.7801],[5.0614,49.7669],[5.0632,49.7619],[5.0836,49.7626],[5.0876,49.7659],[5.0935,49.7637],[5.1185,49.7383],[5.1247,49.7274],[5.1231,49.7173],[5.1256,49.7124],[5.1393,49.7136],[5.1436,49.7093],[5.1513,49.7175],[5.1582,49.7168],[5.1653,49.712],[5.1639,49.699],[5.1662,49.6929],[5.1925,49.6949],[5.1988,49.6921],[5.2052,49.6961],[5.2182,49.6875],[5.2316,49.691],[5.2429,49.6886],[5.2428,49.686],[5.2558,49.6941],[5.2707,49.6953],[5.2866,49.6818],[5.3089,49.6715],[5.332,49.6548],[5.3328,49.6528],[5.3176,49.6464],[5.3049,49.6301],[5.3121,49.6117],[5.3259,49.6163],[5.3402,49.6169],[5.3435,49.6281],[5.3515,49.6308],[5.3635,49.623],[5.3752,49.6232],[5.3983,49.6151],[5.4009,49.6108],[5.411,49.6083],[5.4185,49.5997],[5.4286,49.5959],[5.431,49.5928],[5.4293,49.5875],[5.438,49.5697],[5.4568,49.5667],[5.4472,49.5539],[5.4413,49.5521],[5.4651,49.5389],[5.4668,49.5259],[5.4472,49.5179],[5.4656,49.5087],[5.4652,49.4989],[5.4747,49.4976],[5.4838,49.5071],[5.5019,49.5068],[5.5412,49.5153],[5.5453,49.5232],[5.556,49.5292],[5.5934,49.5219],[5.6023,49.5156],[5.6036,49.5087],[5.611,49.5059],[5.6214,49.5196],[5.6171,49.5294],[5.6328,49.5396],[5.6305,49.5419],[5.6436,49.5469],[5.643,49.55],[5.6605,49.5536],[5.6692,49.5485],[5.69,49.5464],[5.7021,49.5393],[5.7188,49.5395],[5.7245,49.5443],[5.7333,49.5455],[5.7386,49.5386],[5.7474,49.5394],[5.7573,49.5431],[5.7556,49.5561],[5.7595,49.558],[5.7583,49.5612],[5.7714,49.5632],[5.792,49.5517],[5.8157,49.5483],[5.8175,49.5456],[5.8082,49.5426],[5.8172,49.537],[5.837,49.5425],[5.8459,49.5299],[5.8344,49.5263],[5.8366,49.5196],[5.8486,49.5144],[5.8506,49.5083],[5.8588,49.506],[5.8639,49.5008],[5.8956,49.4964],[5.9119,49.502],[5.9276,49.4982],[5.9306,49.5007],[5.9431,49.5002],[5.942,49.4983],[5.9519,49.494],[5.9724,49.4911],[5.9738,49.489],[5.9686,49.4865],[5.9749,49.4806],[5.9714,49.4755],[5.9742,49.4648],[5.9787,49.4612],[5.9877,49.4624],[5.9856,49.4559],[5.9823,49.4571],[5.979,49.4529],[5.9825,49.4511],[6.0009,49.4566],[6.0076,49.4517],[6.0278,49.4557],[6.0275,49.4482],[6.0422,49.4478],[6.0526,49.4641],[6.0578,49.4662],[6.0797,49.4637],[6.08,49.459],[6.0873,49.4549],[6.1008,49.4529],[6.0995,49.4675],[6.1084,49.4721],[6.1235,49.4734],[6.1279,49.4937],[6.1327,49.49],[6.1417,49.4918],[6.141,49.4864],[6.1527,49.4928],[6.1622,49.4932],[6.1538,49.5014],[6.1552,49.5038],[6.1765,49.5099],[6.1781,49.5065],[6.1958,49.5054],[6.2147,49.5064],[6.2171,49.5099],[6.2356,49.5081],[6.2407,49.5145],[6.2464,49.509],[6.2564,49.51],[6.2648,49.504],[6.2791,49.5034],[6.2798,49.4945],[6.2896,49.4932],[6.2844,49.4915],[6.289,49.4847],[6.2982,49.4887],[6.2962,49.4802],[6.3056,49.4773],[6.3128,49.4803],[6.3338,49.4669],[6.3425,49.4692],[6.3479,49.466],[6.3529,49.4672],[6.3644,49.4595],[6.3689,49.4598],[6.3677,49.4694],[6.3752,49.4646],[6.3933,49.4643],[6.4076,49.4675],[6.4205,49.4763],[6.4281,49.4769],[6.4404,49.4667],[6.443,49.4683],[6.4559,49.463],[6.4647,49.4665],[6.487,49.4516],[6.4981,49.4507],[6.5254,49.4353],[6.5419,49.4324],[6.557,49.4191],[6.547,49.4171],[6.5379,49.4106],[6.5405,49.4012],[6.5518,49.3998],[6.5521,49.3945],[6.5634,49.3882],[6.5767,49.3897],[6.58,49.3855],[6.5871,49.3849],[6.5839,49.3686],[6.5951,49.3714],[6.6018,49.3665],[6.5917,49.3581],[6.588,49.3497],[6.5817,49.3561],[6.5742,49.3585],[6.5638,49.3559],[6.5658,49.3473],[6.5754,49.3418],[6.578,49.3352],[6.5858,49.3371],[6.5945,49.3314],[6.5889,49.3221],[6.6053,49.3122],[6.6157,49.3017],[6.6253,49.3028],[6.6318,49.296],[6.6504,49.2884],[6.6532,49.2811],[6.6603,49.2837],[6.6704,49.2803],[6.666,49.2767],[6.6679,49.2713],[6.6603,49.261],[6.6615,49.2573],[6.6644,49.2546],[6.6755,49.2573],[6.6898,49.2497],[6.6846,49.2423],[6.6904,49.2313],[6.6885,49.2223],[6.6959,49.215],[6.7197,49.2214],[6.7233,49.2191],[6.7315,49.2061],[6.7114,49.1885],[6.7203,49.1758],[6.7385,49.1637],[6.7846,49.1681],[6.8345,49.1515],[6.8476,49.1573],[6.8439,49.1731],[6.8587,49.1749],[6.8618,49.1794],[6.8498,49.1942],[6.8515,49.2005],[6.8354,49.2113],[6.8378,49.2133],[6.8575,49.2223],[6.8631,49.222],[6.8732,49.2145],[6.8924,49.2088],[6.9254,49.2236],[6.9379,49.2222],[6.9404,49.2164],[6.9597,49.203],[6.975,49.2098],[6.9988,49.1943],[7.0091,49.1939],[7.0107,49.1881],[7.021,49.1932],[7.0234,49.1892],[7.035,49.1906],[7.0277,49.1701],[7.0333,49.1629],[7.0317,49.1576],[7.0458,49.1391],[7.0452,49.1194],[7.0543,49.1126],[7.0661,49.1146],[7.0719,49.1247],[7.0889,49.1302],[7.0803,49.1488],[7.0833,49.1532],[7.0912,49.1518],[7.1009,49.1556],[7.1133,49.1517],[7.1041,49.1461],[7.1039,49.1389],[7.1263,49.1419],[7.136,49.1285],[7.1588,49.1208],[7.1665,49.1287],[7.177,49.1283],[7.1841,49.1315],[7.1967,49.1221],[7.198,49.1151],[7.2087,49.1247],[7.2453,49.1298],[7.2664,49.1226],[7.2817,49.1245],[7.2839,49.1236],[7.2826,49.1169],[7.2937,49.1151],[7.3042,49.1229],[7.3149,49.1381],[7.3237,49.1427],[7.3633,49.1452],[7.3614,49.1527],[7.369,49.1615],[7.3648,49.1664],[7.3661,49.1725],[7.4448,49.1842],[7.4363,49.18],[7.4415,49.1729],[7.4326,49.1659],[7.4394,49.1643],[7.4473,49.1687],[7.4595,49.1626],[7.4731,49.1687],[7.494,49.1696],[7.493,49.1607],[7.4958,49.1551],[7.5064,49.1549],[7.5057,49.1503],[7.497,49.1452],[7.4955,49.141],[7.4903,49.142],[7.4896,49.1365],[7.4967,49.1354],[7.5057,49.1225],[7.5172,49.1195],[7.5218,49.1082],[7.5299,49.102],[7.529,49.0972],[7.5382,49.0962],[7.536,49.0935],[7.5632,49.0805],[7.6,49.0833],[7.6201,49.0742],[7.6293,49.0737],[7.6329,49.0636],[7.6316,49.0552],[7.6353,49.0542],[7.6745,49.045],[7.6814,49.049],[7.6971,49.0498],[7.6927,49.0547],[7.6961,49.0578],[7.7049,49.0564],[7.7078,49.0528],[7.7178,49.0539],[7.7227,49.0513],[7.7318,49.0556],[7.7322,49.0444],[7.7507,49.048],[7.7582,49.0453],[7.7694,49.0477],[7.7807,49.0586],[7.7883,49.0581],[7.7946,49.0658],[7.8104,49.0614],[7.8143,49.0557],[7.8258,49.0525],[7.831,49.0473],[7.8494,49.0442],[7.8555,49.0354],[7.8663,49.0334],[7.8882,49.0486],[7.9103,49.0451],[7.9167,49.041],[7.9231,49.0443],[7.9338,49.058],[7.9406,49.0545],[7.9456,49.0555],[7.9458,49.0498],[7.9496,49.0471],[7.9668,49.0414],[7.967,49.0364],[7.9722,49.0359],[7.9747,49.027],[8.0005,49.0282],[8.0102,49.0252],[8.0126,49.0212],[8.0492,49.0142],[8.0633,49.0055],[8.0647,49.0],[8.0707,48.9959],[8.0869,48.9905],[8.1234,48.9855],[8.1395,48.9783],[8.1944,48.9774],[8.1986,48.9675],[8.2227,48.976],[8.2333,48.9667],[8.1958,48.9562],[8.1768,48.932],[8.1479,48.9038],[8.1226,48.8671],[8.1039,48.8197],[8.0915,48.8057],[8.0651,48.7898],[8.0396,48.7906],[8.0291,48.7865],[8.0228,48.7684],[8.0147,48.7612],[8.0049,48.7588],[7.9818,48.761],[7.9718,48.7576],[7.9676,48.7487],[7.9673,48.727],[7.9631,48.7214],[7.8909,48.6631],[7.8425,48.6439],[7.8287,48.6177],[7.8018,48.5883],[7.8,48.5814],[7.8055,48.5593],[7.803,48.5361],[7.8065,48.5172],[7.7947,48.5021],[7.7682,48.4897],[7.763,48.4514],[7.7318,48.3929],[7.7315,48.3781],[7.745,48.3357],[7.7447,48.3278],[7.7358,48.3191],[7.7068,48.3104],[7.6934,48.3015],[7.6893,48.2933],[7.6892,48.2806],[7.666,48.2209],[7.6435,48.2065],[7.6295,48.1834],[7.6011,48.1584],[7.5992,48.1358],[7.5773,48.1204],[7.5797,48.1023],[7.5692,48.0814],[7.5738,48.053],[7.5687,48.0341],[7.6088,48.0003],[7.6186,47.9859],[7.6221,47.9723],[7.6088,47.9532],[7.5833,47.9311],[7.5805,47.924],[7.5819,47.8965],[7.5567,47.8799],[7.5559,47.868],[7.5636,47.8521],[7.5631,47.8438],[7.5497,47.8226],[7.5296,47.7789],[7.5322,47.7681],[7.5481,47.7396],[7.5477,47.7299],[7.5403,47.7184],[7.5137,47.7028],[7.5118,47.697],[7.5195,47.6847],[7.5211,47.6637],[7.5384,47.6488],[7.5665,47.6329],[7.5736,47.6167],[7.591,47.6047],[7.5922,47.5954],[7.5849,47.5756],[7.5671,47.5776],[7.5567,47.5723],[7.5591,47.5692],[7.5572,47.565],[7.5,47.5398],[7.498,47.536],[7.5014,47.5287],[7.5111,47.5291],[7.5193,47.5346],[7.5314,47.5283],[7.5229,47.5142],[7.5176,47.517],[7.5035,47.5146],[7.4978,47.5212],[7.4988,47.5167],[7.5082,47.5109],[7.5109,47.5026],[7.5087,47.5021],[7.511,47.4967],[7.5023,47.4938],[7.5025,47.4908],[7.4939,47.4883],[7.4869,47.4817],[7.4761,47.48],[7.4709,47.4804],[7.4621,47.4891],[7.4509,47.4901],[7.4348,47.498],[7.4318,47.4961],[7.4211,47.4804],[7.4361,47.4806],[7.4556,47.473],[7.4557,47.4705],[7.4454,47.4617],[7.4301,47.4593],[7.4284,47.4533],[7.421,47.4461],[7.4029,47.4382],[7.4034,47.4355],[7.3856,47.4316],[7.3557,47.4338],[7.3307,47.4416],[7.3208,47.4384],[7.3029,47.4387],[7.2939,47.4335],[7.2835,47.4348],[7.2695,47.4267],[7.2462,47.4202],[7.2454,47.4263],[7.2389,47.4282],[7.2387,47.4337],[7.2328,47.4388],[7.1997,47.435],[7.1708,47.443],[7.1782,47.4585],[7.1772,47.4676],[7.1914,47.4888],[7.2023,47.4917],[7.2011,47.4939],[7.1617,47.49],[7.1522,47.4963],[7.1303,47.503],[7.136,47.507],[7.1435,47.5246],[7.1398,47.5261],[7.1336,47.539],[7.1188,47.5476],[7.1069,47.5505],[7.1084,47.563],[7.1055,47.5689],[7.0942,47.5736],[7.086,47.587],[7.0863,47.5926],[7.0811,47.5961],[7.074,47.5989],[7.0702,47.5963],[7.0704,47.6007],[7.0659,47.6013],[7.0544,47.5986],[7.0398,47.6011],[7.0339,47.5941],[7.0196,47.5885],[7.0157,47.5918],[7.0216,47.5938],[7.0193,47.5961],[7.0059,47.6024],[7.0105,47.605],[7.0061,47.6129],[7.0059,47.6289],[7.0113,47.6304],[7.0142,47.6257],[7.0169,47.6272],[7.0126,47.6314],[7.0159,47.636],[7.0121,47.6393],[7.0192,47.6412],[7.0176,47.6499],[7.0392,47.6506],[7.0342,47.6611],[7.0451,47.6694],[7.0463,47.6715],[7.0379,47.6745],[7.0389,47.6785],[7.048,47.6841],[7.0401,47.6857],[7.0364,47.6914],[7.0376,47.6947],[7.0332,47.6953],[7.0337,47.6996],[7.0265,47.701],[7.0374,47.7216],[7.0216,47.7333],[7.016,47.7432],[7.013,47.7413],[6.9814,47.7516],[6.9723,47.7515],[6.9435,47.7665],[6.9404,47.7716],[6.9268,47.7695],[6.914,47.7772],[6.8926,47.7775],[6.8801,47.7825],[6.867,47.7833],[6.8624,47.7864],[6.8601,47.7944],[6.8544,47.7956],[6.8484,47.8019],[6.8502,47.8071],[6.8427,47.8122],[6.841,47.819],[6.8462,47.8229],[6.8431,47.825],[6.8235,47.813],[6.7927,47.8295],[6.7884,47.8345],[6.7922,47.8422],[6.7826,47.8513],[6.7702,47.852],[6.7607,47.8583],[6.7378,47.8617],[6.7028,47.8817],[6.6464,47.9032],[6.6393,47.9103],[6.6419,47.9178],[6.6331,47.9214],[6.6274,47.9301],[6.6185,47.9314],[6.6074,47.9438],[6.5898,47.9425],[6.5634,47.9314],[6.552,47.9155],[6.5522,47.9116],[6.544,47.9085],[6.544,47.9031],[6.5032,47.8962],[6.4783,47.8854],[6.4741,47.891],[6.478,47.893],[6.4655,47.8971],[6.456,47.9068],[6.4634,47.9141],[6.4627,47.9173],[6.4492,47.9217],[6.4481,47.9261],[6.4363,47.9365],[6.4347,47.9428],[6.4084,47.9432],[6.4054,47.9531],[6.3945,47.955],[6.3889,47.9608],[6.3806,47.9585],[6.3616,47.9613],[6.3609,47.9585],[6.3453,47.9545],[6.3353,47.9558],[6.3233,47.9488],[6.2891,47.9558],[6.2773,47.9538],[6.2508,47.9391],[6.2432,47.9396],[6.2387,47.9371],[6.238,47.9328],[6.2192,47.9358],[6.2144,47.9304],[6.2052,47.932],[6.2081,47.9468],[6.1971,47.9474],[6.1974,47.9518],[6.182,47.9563],[6.168,47.9524],[6.1621,47.9568],[6.1571,47.9679],[6.1556,47.965],[6.1498,47.9659],[6.1509,47.9706],[6.1646,47.9731],[6.1645,47.9777],[6.1576,47.9845],[6.1596,47.9923],[6.1527,47.9941],[6.1561,48.0069],[6.1314,48.0241],[6.1174,48.02],[6.1092,48.0125],[6.0977,48.015],[6.0808,48.0128],[6.0728,48.0158],[6.0412,48.0044],[6.0325,47.9986],[6.0322,47.9906],[6.0249,47.9916],[6.0247,47.9871],[6.019,47.9875],[6.0182,47.9842],[6.0261,47.9815],[6.0173,47.9725],[6.019,47.9697],[6.0121,47.9719],[6.0053,47.9578],[5.9708,47.9572],[5.9689,47.9474],[5.9494,47.9355],[5.9284,47.9378],[5.9379,47.9516],[5.9464,47.9552],[5.9601,47.968],[5.9496,47.9729],[5.9475,47.9792],[5.9325,47.9773],[5.9174,47.9662],[5.9205,47.9566],[5.918,47.9474],[5.9001,47.9447],[5.8929,47.9371],[5.8972,47.931],[5.8836,47.9249],[5.8834,47.9215],[5.8896,47.9206],[5.8864,47.9159],[5.8909,47.9108],[5.8873,47.9036],[5.8828,47.9],[5.87,47.9007],[5.8513,47.906],[5.8375,47.8912],[5.8386,47.8854],[5.8207,47.8691],[5.8281,47.858],[5.8178,47.8533],[5.8297,47.8562],[5.828,47.8519],[5.7961,47.8468],[5.7989,47.8557],[5.7748,47.858],[5.7673,47.8556],[5.7612,47.8593],[5.7561,47.8533],[5.7442,47.8488],[5.7436,47.8424],[5.7481,47.8384],[5.7456,47.8295],[5.7511,47.829],[5.7453,47.8267],[5.7408,47.8192],[5.7303,47.8177],[5.7217,47.8217],[5.7011,47.8236],[5.6922,47.8213],[5.6815,47.8091],[5.6766,47.7792],[5.6821,47.7755],[5.68,47.77],[5.7075,47.7675],[5.7093,47.7571],[5.7061,47.7515],[5.7096,47.7453],[5.6904,47.7351],[5.6887,47.7305],[5.6952,47.726],[5.6871,47.7225],[5.6883,47.7194],[5.6834,47.7167],[5.6858,47.7151],[5.6841,47.712],[5.6935,47.7048],[5.6946,47.6916],[5.6911,47.6846],[5.6875,47.6857],[5.6859,47.6829],[5.6812,47.6863],[5.6754,47.6819],[5.6635,47.6849],[5.648,47.6753],[5.6303,47.677],[5.6116,47.6732],[5.6012,47.6752],[5.5967,47.6717],[5.5928,47.6819],[5.5846,47.6907],[5.5851,47.7002],[5.5674,47.7071],[5.5298,47.6728],[5.512,47.6736],[5.4828,47.6846],[5.4703,47.675],[5.4475,47.6708],[5.4338,47.6713],[5.4202,47.6777],[5.4063,47.6734],[5.4026,47.6567],[5.399,47.6532],[5.4002,47.6485],[5.4058,47.6469],[5.3858,47.6351],[5.3726,47.6184],[5.3741,47.6045],[5.367,47.6047],[5.3556,47.5915],[5.3407,47.5962],[5.3455,47.6047],[5.341,47.6084],[5.3223,47.6124],[5.3145,47.6062],[5.2982,47.6043],[5.294,47.5979],[5.2778,47.5898],[5.2779,47.5814],[5.2531,47.5769],[5.2476,47.5898],[5.238,47.5965],[5.2586,47.6222],[5.2369,47.6168],[5.2374,47.621],[5.2292,47.6256],[5.2302,47.6295],[5.2213,47.6322],[5.2114,47.6419],[5.1736,47.6526],[5.1733,47.6665],[5.1783,47.681],[5.1619,47.6805],[5.155,47.6672],[5.1428,47.6557],[5.1353,47.6537],[5.1386,47.6509],[5.1254,47.6468],[5.1169,47.652],[5.1089,47.6497],[5.1034,47.6541],[5.104,47.6589],[5.0861,47.6566],[5.0833,47.6604],[5.0782,47.6601],[5.0761,47.6654],[5.0715,47.6642],[5.0692,47.6686],[5.0674,47.665],[5.067,47.6678],[5.0535,47.6683],[5.0436,47.6765],[5.0504,47.6801],[5.0525,47.688],[5.0606,47.6948],[5.0555,47.6973],[5.0536,47.6942],[5.0288,47.6933],[5.0339,47.7016],[5.0336,47.7079],[5.0291,47.7099],[5.0046,47.7012],[5.0036,47.6937],[4.9967,47.69],[4.9691,47.6858],[4.972,47.6916],[4.9541,47.7015],[4.9538,47.7069],[4.9644,47.7134],[4.9635,47.7222],[4.9717,47.7294],[4.97,47.7355],[4.9568,47.7325],[4.9661,47.7406],[4.9599,47.7516],[4.959,47.7619],[4.9508,47.7626],[4.9474,47.7666],[4.9422,47.7626],[4.9227,47.7589],[4.9267,47.7648],[4.9171,47.7669],[4.9209,47.7672],[4.9208,47.7728],[4.9238,47.7734],[4.918,47.7771],[4.9823,47.8001],[4.9939,47.8129],[4.9888,47.8186],[4.9941,47.8197],[4.986,47.8225],[4.9847,47.8289],[4.9684,47.8319],[4.9662,47.8394],[4.9604,47.8394],[4.9634,47.8522],[4.9541,47.8668],[4.9402,47.867],[4.9275,47.8715],[4.93,47.875],[4.9272,47.8788],[4.9286,47.8862],[4.9154,47.8978],[4.914,47.9056],[4.9029,47.921],[4.8928,47.9227],[4.8693,47.9175],[4.8708,47.9153],[4.8592,47.9018],[4.8604,47.8963],[4.834,47.9068],[4.8295,47.9123],[4.8312,47.9179],[4.8394,47.9226],[4.8468,47.9213],[4.8464,47.9274],[4.8661,47.9405],[4.8577,47.9521],[4.8452,47.9612],[4.8275,47.9609],[4.8198,47.9645],[4.8194,47.9604],[4.811,47.9593],[4.7936,47.9623],[4.7911,47.9654],[4.7865,47.9642],[4.7857,47.9715],[4.795,47.9845],[4.8102,47.9886],[4.7932,47.9965],[4.7934,48.0029],[4.7891,48.0078],[4.7421,48.0046],[4.7199,48.0089],[4.7222,48.0101],[4.7155,48.0115],[4.7004,48.0237],[4.6732,48.0151],[4.6655,48.0208],[4.6558,48.0175],[4.6552,48.0209],[4.6477,48.0257],[4.622,48.0243],[4.6168,48.0314],[4.6068,48.0285],[4.5851,48.0301],[4.5703,48.0238],[4.5633,48.0152],[4.5556,48.0136],[4.5494,48.0045],[4.5358,48.0066],[4.5409,47.9921],[4.5549,47.986],[4.5571,47.9819],[4.56,47.9714],[4.5542,47.9675],[4.5316,47.9699],[4.515,47.9662],[4.4933,47.9682],[4.483,47.9632],[4.447,47.9562],[4.4179,47.9685],[4.3838,47.9597],[4.3686,47.962],[4.3663,47.9582],[4.3432,47.9559],[4.3128,47.9625],[4.309,47.9612],[4.3027,47.9507],[4.2979,47.9497],[4.3029,47.9385],[4.2934,47.9257],[4.2697,47.9237],[4.2455,47.9297],[4.2371,47.9407],[4.2222,47.9497],[4.2281,47.961],[4.226,47.9719],[4.2024,47.973],[4.1928,47.9646],[4.2027,47.9598],[4.2131,47.9619],[4.2031,47.9592],[4.2078,47.9466],[4.2019,47.9412],[4.1854,47.9402],[4.1842,47.9554],[4.1663,47.9598],[4.156,47.9557],[4.1402,47.9427],[4.1418,47.9371],[4.1304,47.9368],[4.1096,47.926],[4.1071,47.9298],[4.0921,47.9282],[4.0938,47.934],[4.09,47.9362],[4.093,47.943],[4.0897,47.945],[4.0779,47.9428],[4.0609,47.9457],[4.0564,47.9406],[4.0589,47.9317],[4.0448,47.9251],[4.0313,47.9332],[4.0256,47.9283],[4.0181,47.9285],[4.0126,47.9321],[4.0136,47.9368],[4.0039,47.942],[3.9856,47.9305],[3.9626,47.936],[3.9481,47.9309],[3.9454,47.9347],[3.9353,47.932],[3.9264,47.9346],[3.9185,47.928],[3.9117,47.9301],[3.9053,47.925],[3.8954,47.9286],[3.9036,47.9383],[3.8995,47.9407],[3.9037,47.9463],[3.9047,47.9581],[3.9133,47.9694],[3.9147,47.9757],[3.9109,47.9818],[3.9003,47.9979],[3.8934,48.0017],[3.8817,48.0003],[3.8854,47.9915],[3.8777,47.987],[3.8833,47.9852],[3.88,47.9792],[3.8618,47.9764],[3.8659,47.9844],[3.85,47.9837],[3.847,47.9946],[3.8393,47.9991],[3.8398,48.0039],[3.8549,48.0035],[3.8637,48.007],[3.8707,48.0029],[3.8706,48.0168],[3.8472,48.0293],[3.8426,48.0362],[3.8321,48.0362],[3.822,48.0439],[3.8302,48.0471],[3.8241,48.0531],[3.8295,48.0577],[3.8055,48.0822],[3.8069,48.0842],[3.7981,48.0865],[3.7998,48.0969],[3.8056,48.1005],[3.7917,48.1176],[3.7799,48.1206],[3.7764,48.1243],[3.7774,48.1285],[3.768,48.1338],[3.7621,48.1318],[3.7569,48.1253],[3.7397,48.1328],[3.7429,48.1429],[3.7548,48.1502],[3.7475,48.1662],[3.7185,48.1754],[3.7135,48.1739],[3.7211,48.1624],[3.7216,48.1553],[3.705,48.1443],[3.7003,48.145],[3.693,48.1546],[3.6936,48.148],[3.6909,48.145],[3.6679,48.1392],[3.6606,48.1589],[3.6507,48.1682],[3.6415,48.1839],[3.6349,48.1879],[3.6217,48.192],[3.5942,48.1789],[3.5798,48.1843],[3.5752,48.1887],[3.5999,48.2023],[3.6216,48.2257],[3.6148,48.2318],[3.6079,48.2326],[3.6047,48.2299],[3.5998,48.2359],[3.6153,48.2509],[3.6243,48.2545],[3.6168,48.2713],[3.6019,48.2759],[3.6004,48.2795],[3.5872,48.2802],[3.5778,48.2846],[3.5857,48.2901],[3.588,48.3008],[3.5826,48.3012],[3.5801,48.306],[3.5666,48.3074],[3.5611,48.3119],[3.565,48.3133],[3.5634,48.3214],[3.5439,48.3198],[3.5451,48.3345],[3.5341,48.3388],[3.5204,48.3493],[3.5216,48.3515],[3.5135,48.36],[3.4976,48.3696],[3.4749,48.3693],[3.4675,48.3757],[3.4508,48.3739],[3.448,48.3725],[3.4483,48.3684],[3.4274,48.3581],[3.4217,48.3717],[3.4133,48.3763],[3.4152,48.3957],[3.4221,48.4162],[3.4025,48.4152],[3.4024,48.4177],[3.4115,48.4174],[3.4118,48.4213],[3.3917,48.4233],[3.3966,48.4327],[3.3952,48.4368],[3.4016,48.4357],[3.4049,48.4394],[3.4065,48.4524],[3.3944,48.4627],[3.3996,48.4677],[3.3912,48.4705],[3.3885,48.4772],[3.3834,48.4794],[3.3925,48.4816],[3.3935,48.4843],[3.3993,48.4836],[3.3981,48.4863],[3.404,48.486],[3.4051,48.4885],[3.4097,48.4857],[3.4204,48.4917],[3.4346,48.4903],[3.4349,48.4975],[3.4236,48.5148],[3.4054,48.528],[3.4142,48.5335],[3.44,48.5284],[3.4569,48.5296],[3.4757,48.5414],[3.4817,48.5414],[3.4791,48.5455],[3.4859,48.5473],[3.4764,48.5521],[3.4742,48.5645],[3.4655,48.5705],[3.4734,48.5769],[3.4853,48.5804],[3.4932,48.5902],[3.5159,48.5898],[3.5032,48.6046],[3.5346,48.6103],[3.5401,48.6126],[3.5408,48.616],[3.5585,48.617],[3.538,48.6316],[3.5191,48.6335],[3.5174,48.6372],[3.5332,48.6465],[3.5175,48.6434],[3.4929,48.6476],[3.4766,48.6373],[3.4511,48.6347],[3.4604,48.653],[3.4406,48.6636],[3.4462,48.6669],[3.4427,48.6725],[3.4495,48.6758],[3.4476,48.6773],[3.4627,48.6855],[3.4717,48.6857],[3.4726,48.6979],[3.4778,48.6979],[3.4643,48.7074],[3.4673,48.7086],[3.4653,48.7119],[3.4697,48.7379],[3.4441,48.7366],[3.4363,48.7437],[3.4366,48.7532],[3.4285,48.7584],[3.4234,48.7539],[3.4091,48.7523],[3.3991,48.755],[3.3958,48.7593],[3.4089,48.7839],[3.4241,48.7841],[3.4295,48.7794],[3.4382,48.7851],[3.4419,48.7824],[3.444,48.7914],[3.4399,48.7981],[3.4421,48.8036],[3.423,48.8008],[3.4111,48.8037],[3.4042,48.8093],[3.4166,48.8178],[3.4322,48.8123],[3.4482,48.8111],[3.4704,48.8209],[3.4809,48.8122],[3.4872,48.8152],[3.485,48.825],[3.4913,48.8347],[3.4852,48.8519],[3.4864,48.8581],[3.4818,48.8659],[3.5019,48.8719],[3.509,48.8853],[3.5083,48.8904],[3.5286,48.9121],[3.5326,48.9106],[3.5431,48.9154],[3.5499,48.9136],[3.56,48.917],[3.5642,48.9113],[3.5707,48.9149],[3.5764,48.9233],[3.573,48.925],[3.5744,48.939],[3.5927,48.9446],[3.6025,48.9439],[3.5992,48.9511],[3.6016,48.9535],[3.5916,48.9604],[3.6009,48.9663],[3.6054,48.964],[3.6104,48.9669],[3.6212,48.966],[3.6266,48.9798],[3.6233,48.9827],[3.6399,49.0041],[3.6603,49.0043],[3.6777,49.014],[3.679,49.0183],[3.6635,49.0373],[3.6501,49.0428],[3.6426,49.037],[3.6313,49.0397],[3.6168,49.0365],[3.6157,49.0336],[3.5876,49.0338],[3.5852,49.0389],[3.5877,49.0594],[3.5999,49.062],[3.6091,49.0731],[3.6238,49.0709],[3.6385,49.0774],[3.6391,49.0813],[3.6321,49.0862],[3.6118,49.1181],[3.6031,49.1147],[3.6,49.1207],[3.6117,49.1287],[3.6096,49.135],[3.6145,49.1391],[3.6206,49.1392],[3.6188,49.1433],[3.6223,49.1511],[3.6534,49.1487],[3.6873,49.1542],[3.698,49.1498],[3.7027,49.1414],[3.7076,49.1431],[3.7061,49.1453],[3.7396,49.1569],[3.7488,49.1571],[3.7511,49.1777],[3.7301,49.1783],[3.7254,49.1735],[3.7112,49.1782],[3.7044,49.1814],[3.7069,49.1859],[3.6973,49.1884],[3.6969,49.1945],[3.7019,49.1944],[3.7049,49.1986],[3.6986,49.2055],[3.6929,49.2056],[3.6898,49.2007],[3.6816,49.1975],[3.6761,49.2009],[3.6818,49.2053],[3.6704,49.2097],[3.6625,49.209],[3.6528,49.2154],[3.6563,49.2184],[3.6515,49.2216],[3.6636,49.2219],[3.6704,49.228],[3.67,49.2329],[3.6782,49.2353],[3.675,49.2401],[3.6686,49.2409],[3.67,49.2432],[3.666,49.2464],[3.6607,49.2601],[3.6581,49.2605],[3.6539,49.2542],[3.6554,49.2634],[3.6615,49.27],[3.6516,49.2784],[3.6526,49.2828],[3.659,49.2868],[3.6573,49.291],[3.6428,49.2961],[3.6383,49.3014],[3.6435,49.303],[3.6439,49.3127],[3.6652,49.3198],[3.6692,49.3248],[3.6891,49.3269],[3.7013,49.3325],[3.7422,49.3365],[3.7411,49.3476],[3.7578,49.3476],[3.7775,49.3558],[3.7797,49.3519],[3.8022,49.3589],[3.8241,49.3573],[3.8241,49.354],[3.8528,49.345],[3.8587,49.3541],[3.8479,49.3646],[3.8561,49.3642],[3.8526,49.3657],[3.8598,49.3727],[3.8563,49.3812],[3.8597,49.3818],[3.8598,49.3862],[3.8396,49.391],[3.8367,49.3967],[3.8224,49.4024],[3.8463,49.4006],[3.8453,49.4031],[3.8552,49.4012],[3.8696,49.4067],[3.8812,49.4053],[3.8933,49.3991],[3.8957,49.3928],[3.9103,49.3948],[3.915,49.3984],[3.9147,49.4035],[3.9252,49.4076],[3.9338,49.4019],[3.9315,49.4008],[3.9447,49.3899],[3.9426,49.3889],[3.9613,49.3773],[3.9949,49.3779],[3.9963,49.3717],[3.999,49.3724],[4.0007,49.3687],[4.0069,49.3696],[4.0127,49.3583],[4.0355,49.3599],[4.0399,49.3974],[4.0449,49.4045],[4.0479,49.4042],[4.0503,49.4123],[4.0471,49.4176],[4.0423,49.4166],[4.0437,49.4287],[4.0377,49.4383],[4.0503,49.4476],[4.0521,49.4438],[4.0602,49.4472],[4.0679,49.4449],[4.0576,49.4512],[4.0549,49.4592],[4.0424,49.4687],[4.0407,49.5085],[4.0576,49.5082],[4.0619,49.5126],[4.0566,49.521],[4.0621,49.5227],[4.0655,49.5233],[4.072,49.5164],[4.0758,49.5183],[4.0736,49.5235],[4.0774,49.5245],[4.0758,49.5415],[4.0488,49.5453],[4.0504,49.5515],[4.0583,49.5525],[4.0626,49.5563],[4.06,49.5584],[4.0625,49.5612],[4.0641,49.5596],[4.0668,49.5641],[4.0752,49.5657],[4.0766,49.5711],[4.0633,49.5712],[4.0595,49.5761],[4.0624,49.586],[4.0579,49.5915],[4.0665,49.5944],[4.0543,49.5952],[4.0524,49.6],[4.0473,49.5995],[4.0246,49.6213],[4.0379,49.6229],[4.0385,49.6283],[4.0434,49.633],[4.0404,49.6335],[4.0411,49.6383],[4.0557,49.6343],[4.069,49.6375],[4.0863,49.6293],[4.0992,49.6283],[4.1022,49.6326],[4.1158,49.6329],[4.1191,49.6385],[4.1167,49.6408],[4.1255,49.6511],[4.1221,49.6582],[4.127,49.6779],[4.1372,49.6759],[4.1368,49.6781],[4.1486,49.6783],[4.1442,49.6885],[4.1852,49.6989],[4.1842,49.7026],[4.1925,49.712],[4.1914,49.716],[4.2065,49.7235],[4.2319,49.7304],[4.2259,49.7328],[4.2297,49.7466],[4.2496,49.7571],[4.242,49.7625],[4.2428,49.7671],[4.2286,49.7731],[4.2139,49.7711],[4.2059,49.7782],[4.2224,49.7872],[4.2267,49.793],[4.219,49.8002],[4.2218,49.8045],[4.2143,49.8061],[4.2196,49.8143],[4.2236,49.8341],[4.2297,49.8361],[4.233,49.8484],[4.2488,49.8567],[4.2528,49.8697],[4.254,49.8869],[4.2509,49.8889],[4.2557,49.9032],[4.235,49.904],[4.2334,49.9094],[4.2218,49.9105],[4.217,49.9144],[4.2207,49.9372],[4.2299,49.9462],[4.2332,49.9577]]]}}]}